{
"type": "FeatureCollection",
"name": "hospitals",
"crs": { "type": "name", "properties": { "name": "urn:ogc:def:crs:OGC:1.3:CRS84" } },
"features": [
{ "type": "Feature", "properties": { "element": "node", "id": 1754861232, "addr:street": "Bagayam", "amenity": "hospital", "designation": "CHAD", "emergency": "yes", "healthcare": "hospital", "healthcare:speciality": "psychiatry", "name:en": "CHAD (CMC) Hospital", "operator": "Christian Medical College", "operator:wikidata": "Q3532259", "website": "http://cmcvellore.ac.in", "addr:district": null, "addr:full": null, "addr:postcode": null, "addr:state": null, "name": null, "source": null, "addr:subdistrict": null, "addr:block": null, "phone": null, "addr:city": null, "addr:housenumber": null, "operator:type": null, "alt_name": null, "email": null, "name:ml": null, "name:ta": null, "wikidata": null, "wikimedia_commons": null, "wikipedia": null, "building": null, "area": null }, "geometry": { "type": "Point", "coordinates": [ 79.1340678, 12.8793817 ] } },
{ "type": "Feature", "properties": { "element": "node", "id": 6914957590, "addr:street": null, "amenity": "hospital", "designation": null, "emergency": null, "healthcare": "hospital", "healthcare:speciality": null, "name:en": null, "operator": null, "operator:wikidata": null, "website": null, "addr:district": "Vellore", "addr:full": "Thirumalaikodi,Near Narayani Amman Tmple", "addr:postcode": "632055", "addr:state": "Tamil Nadu", "name": "Sri Narayani Hospital and Research Centre", "source": "OpenGovernmentData", "addr:subdistrict": null, "addr:block": null, "phone": null, "addr:city": null, "addr:housenumber": null, "operator:type": null, "alt_name": null, "email": null, "name:ml": null, "name:ta": null, "wikidata": null, "wikimedia_commons": null, "wikipedia": null, "building": null, "area": null }, "geometry": { "type": "Point", "coordinates": [ 79.089919, 12.8709241 ] } },
{ "type": "Feature", "properties": { "element": "node", "id": 6915394481, "addr:street": null, "amenity": "hospital", "designation": null, "emergency": null, "healthcare": "hospital", "healthcare:speciality": "multi speciality", "name:en": null, "operator": null, "operator:wikidata": null, "website": null, "addr:district": "Vellore", "addr:full": "Sathuvachari,Vellore", "addr:postcode": "632009", "addr:state": "Tamil Nadu", "name": "A.S.A Hospital", "source": "OpenGovernmentData", "addr:subdistrict": null, "addr:block": null, "phone": null, "addr:city": null, "addr:housenumber": null, "operator:type": null, "alt_name": null, "email": null, "name:ml": null, "name:ta": null, "wikidata": null, "wikimedia_commons": null, "wikipedia": null, "building": null, "area": null }, "geometry": { "type": "Point", "coordinates": [ 79.1629033, 12.9370042 ] } },
{ "type": "Feature", "properties": { "element": "node", "id": 6932166589, "addr:street": null, "amenity": "hospital", "designation": null, "emergency": null, "healthcare": "hospital", "healthcare:speciality": null, "name:en": null, "operator": null, "operator:wikidata": null, "website": null, "addr:district": "Vellore", "addr:full": "#10, 19Th Cross, Phase Ii,Sathuvachary", "addr:postcode": "632009", "addr:state": "Tamil Nadu", "name": "Vellore Eye and Dental Hospital", "source": "OpenGovernmentData", "addr:subdistrict": null, "addr:block": null, "phone": null, "addr:city": null, "addr:housenumber": null, "operator:type": null, "alt_name": null, "email": null, "name:ml": null, "name:ta": null, "wikidata": null, "wikimedia_commons": null, "wikipedia": null, "building": null, "area": null }, "geometry": { "type": "Point", "coordinates": [ 79.1554011, 12.9310563 ] } },
{ "type": "Feature", "properties": { "element": "node", "id": 6932966222, "addr:street": null, "amenity": "hospital", "designation": null, "emergency": null, "healthcare": "hospital", "healthcare:speciality": null, "name:en": null, "operator": null, "operator:wikidata": null, "website": null, "addr:district": "Vellore", "addr:full": "44,Arcot Road, Phase -Ii,Sathuvachary", "addr:postcode": "632009", "addr:state": "Tamil Nadu", "name": "Nalam Medical Center and Hospital", "source": "OpenGovernmentData", "addr:subdistrict": null, "addr:block": null, "phone": null, "addr:city": null, "addr:housenumber": null, "operator:type": null, "alt_name": null, "email": null, "name:ml": null, "name:ta": null, "wikidata": null, "wikimedia_commons": null, "wikipedia": null, "building": null, "area": null }, "geometry": { "type": "Point", "coordinates": [ 79.1536966, 12.9346861 ] } },
{ "type": "Feature", "properties": { "element": "node", "id": 6933824568, "addr:street": null, "amenity": "hospital", "designation": null, "emergency": null, "healthcare": "hospital", "healthcare:speciality": null, "name:en": null, "operator": null, "operator:wikidata": null, "website": null, "addr:district": "Vellore", "addr:full": "No 30 /1, Officers Lane", "addr:postcode": "632001", "addr:state": "Tamil Nadu", "name": "Vasan Eye Care Hospital, Vellore", "source": "OpenGovernmentData", "addr:subdistrict": null, "addr:block": null, "phone": null, "addr:city": null, "addr:housenumber": null, "operator:type": null, "alt_name": null, "email": null, "name:ml": null, "name:ta": null, "wikidata": null, "wikimedia_commons": null, "wikipedia": null, "building": null, "area": null }, "geometry": { "type": "Point", "coordinates": [ 79.1316354, 12.9088334 ] } },
{ "type": "Feature", "properties": { "element": "node", "id": 6936359946, "addr:street": null, "amenity": "hospital", "designation": null, "emergency": null, "healthcare": null, "healthcare:speciality": null, "name:en": null, "operator": null, "operator:wikidata": null, "website": null, "addr:district": "Vellore", "addr:full": "Tarapada Vedu, Taj Complex, No. 7/8, Pilliyar Kovil Street, Road, Vellore", "addr:postcode": "632007", "addr:state": "Tamil Nadu", "name": "Lakshmi Hospital, Vellore", "source": "OpenGovernmentData", "addr:subdistrict": "Katpadi", "addr:block": null, "phone": null, "addr:city": null, "addr:housenumber": null, "operator:type": null, "alt_name": null, "email": null, "name:ml": null, "name:ta": null, "wikidata": null, "wikimedia_commons": null, "wikipedia": null, "building": null, "area": null }, "geometry": { "type": "Point", "coordinates": [ 79.1369931, 12.9684926 ] } },
{ "type": "Feature", "properties": { "element": "node", "id": 6936359962, "addr:street": null, "amenity": "hospital", "designation": null, "emergency": null, "healthcare": "hospital", "healthcare:speciality": null, "name:en": null, "operator": null, "operator:wikidata": null, "website": null, "addr:district": "Vellore", "addr:full": "Kalinjur Kalinjur Gandhi Nagar Vellore", "addr:postcode": "632006", "addr:state": "Tamil Nadu", "name": "Kumaran Hospital, Vellore", "source": "OpenGovernmentData", "addr:subdistrict": null, "addr:block": null, "phone": null, "addr:city": null, "addr:housenumber": null, "operator:type": null, "alt_name": null, "email": null, "name:ml": null, "name:ta": null, "wikidata": null, "wikimedia_commons": null, "wikipedia": null, "building": null, "area": null }, "geometry": { "type": "Point", "coordinates": [ 79.1373874, 12.9459476 ] } },
{ "type": "Feature", "properties": { "element": "node", "id": 6936684357, "addr:street": null, "amenity": "hospital", "designation": null, "emergency": null, "healthcare": null, "healthcare:speciality": null, "name:en": null, "operator": null, "operator:wikidata": null, "website": null, "addr:district": "Vellore", "addr:full": "Karigiri, The Schieffelin Institute Of Health Research & Training Centre, Karigiri", "addr:postcode": "632106", "addr:state": "Tamil Nadu", "name": "The Schieffelin Institute Of Health Research & Training Centre, Karigiri", "source": "OpenGovernmentData", "addr:subdistrict": "Katpadi", "addr:block": null, "phone": null, "addr:city": null, "addr:housenumber": null, "operator:type": null, "alt_name": null, "email": null, "name:ml": null, "name:ta": null, "wikidata": null, "wikimedia_commons": null, "wikipedia": null, "building": null, "area": null }, "geometry": { "type": "Point", "coordinates": [ 79.1969506, 12.9938366 ] } },
{ "type": "Feature", "properties": { "element": "node", "id": 6936709044, "addr:street": null, "amenity": "hospital", "designation": null, "emergency": null, "healthcare": "hospital", "healthcare:speciality": null, "name:en": null, "operator": null, "operator:wikidata": null, "website": null, "addr:district": "Vellore", "addr:full": "Vellore, C-3 Arcot Rd Sathuvachari, Vellore -632009", "addr:postcode": "632009", "addr:state": "Tamil Nadu", "name": "Dr Sivakumar Multi Speciality Hospital, Vellore", "source": "OpenGovernmentData", "addr:subdistrict": null, "addr:block": "Vellore Corp", "phone": null, "addr:city": null, "addr:housenumber": null, "operator:type": null, "alt_name": null, "email": null, "name:ml": null, "name:ta": null, "wikidata": null, "wikimedia_commons": null, "wikipedia": null, "building": null, "area": null }, "geometry": { "type": "Point", "coordinates": [ 79.152562, 12.9343057 ] } },
{ "type": "Feature", "properties": { "element": "node", "id": 6936770777, "addr:street": null, "amenity": "hospital", "designation": null, "emergency": null, "healthcare": "hospital", "healthcare:speciality": null, "name:en": null, "operator": null, "operator:wikidata": null, "website": null, "addr:district": "Vellore", "addr:full": "Vellore, Sathuvachary, Phase-I, Vallalar", "addr:postcode": "632009", "addr:state": "Tamil Nadu", "name": "Sandhya Hospital", "source": "OpenGovernmentData", "addr:subdistrict": null, "addr:block": "Vellore Corp", "phone": null, "addr:city": null, "addr:housenumber": null, "operator:type": null, "alt_name": null, "email": null, "name:ml": null, "name:ta": null, "wikidata": null, "wikimedia_commons": null, "wikipedia": null, "building": null, "area": null }, "geometry": { "type": "Point", "coordinates": [ 79.1684776, 12.9382969 ] } },
{ "type": "Feature", "properties": { "element": "node", "id": 6937498370, "addr:street": null, "amenity": "hospital", "designation": null, "emergency": null, "healthcare": "hospital", "healthcare:speciality": null, "name:en": null, "operator": null, "operator:wikidata": null, "website": null, "addr:district": "Vellore", "addr:full": "No.19/1, Officers Line", "addr:postcode": "632001", "addr:state": "Tamil Nadu", "name": "Dr. Agarwal`S Eye Hospital Ltd", "source": "OpenGovernmentData", "addr:subdistrict": null, "addr:block": null, "phone": null, "addr:city": null, "addr:housenumber": null, "operator:type": null, "alt_name": null, "email": null, "name:ml": null, "name:ta": null, "wikidata": null, "wikimedia_commons": null, "wikipedia": null, "building": null, "area": null }, "geometry": { "type": "Point", "coordinates": [ 79.131622, 12.9106975 ] } },
{ "type": "Feature", "properties": { "element": "node", "id": 7174210785, "addr:street": null, "amenity": "hospital", "designation": null, "emergency": null, "healthcare": "hospital", "healthcare:speciality": null, "name:en": "Dr.S,R.Ashokan", "operator": null, "operator:wikidata": null, "website": null, "addr:district": null, "addr:full": null, "addr:postcode": null, "addr:state": null, "name": null, "source": null, "addr:subdistrict": null, "addr:block": null, "phone": null, "addr:city": null, "addr:housenumber": null, "operator:type": null, "alt_name": null, "email": null, "name:ml": null, "name:ta": null, "wikidata": null, "wikimedia_commons": null, "wikipedia": null, "building": null, "area": null }, "geometry": { "type": "Point", "coordinates": [ 78.8695276, 12.9450447 ] } },
{ "type": "Feature", "properties": { "element": "node", "id": 7181669848, "addr:street": null, "amenity": "hospital", "designation": null, "emergency": null, "healthcare": "hospital", "healthcare:speciality": null, "name:en": null, "operator": null, "operator:wikidata": null, "website": null, "addr:district": "Vellore", "addr:full": "#32, G.P.H. Road,Kosapet", "addr:postcode": "632001", "addr:state": "Tamil Nadu", "name": "Sankari Hospital", "source": "OpenGovernmentData", "addr:subdistrict": null, "addr:block": "Vellore Corp", "phone": null, "addr:city": null, "addr:housenumber": null, "operator:type": null, "alt_name": null, "email": null, "name:ml": null, "name:ta": null, "wikidata": null, "wikimedia_commons": null, "wikipedia": null, "building": null, "area": null }, "geometry": { "type": "Point", "coordinates": [ 79.1335011, 12.9153529 ] } },
{ "type": "Feature", "properties": { "element": "node", "id": 7200398285, "addr:street": "Thennamara Theru", "amenity": "hospital", "designation": null, "emergency": null, "healthcare": "hospital", "healthcare:speciality": null, "name:en": "Dr Thirumal Babu", "operator": null, "operator:wikidata": null, "website": null, "addr:district": null, "addr:full": null, "addr:postcode": null, "addr:state": null, "name": null, "source": null, "addr:subdistrict": null, "addr:block": null, "phone": "9003070065", "addr:city": null, "addr:housenumber": null, "operator:type": null, "alt_name": null, "email": null, "name:ml": null, "name:ta": null, "wikidata": null, "wikimedia_commons": null, "wikipedia": null, "building": null, "area": null }, "geometry": { "type": "Point", "coordinates": [ 79.1349428, 12.9137954 ] } },
{ "type": "Feature", "properties": { "element": "node", "id": 7252333326, "addr:street": null, "amenity": "hospital", "designation": null, "emergency": null, "healthcare": null, "healthcare:speciality": null, "name:en": null, "operator": null, "operator:wikidata": null, "website": null, "addr:district": "Vellore", "addr:full": "Paratharami PHC, Gangai Amman Kovil Near, Paradharami, Gudiyatham To Katpadi Road", "addr:postcode": "632603", "addr:state": "Tamil Nadu", "name": "Paratharami Government Hospital", "source": "OpenGovernmentData", "addr:subdistrict": "Gudiyatham", "addr:block": "Gudiyatham Mpty", "phone": null, "addr:city": null, "addr:housenumber": null, "operator:type": null, "alt_name": null, "email": null, "name:ml": null, "name:ta": null, "wikidata": null, "wikimedia_commons": null, "wikipedia": null, "building": null, "area": null }, "geometry": { "type": "Point", "coordinates": [ 78.9720516, 13.062703 ] } },
{ "type": "Feature", "properties": { "element": "node", "id": 7257289024, "addr:street": null, "amenity": "hospital", "designation": null, "emergency": null, "healthcare": null, "healthcare:speciality": null, "name:en": null, "operator": null, "operator:wikidata": null, "website": null, "addr:district": "Vellore", "addr:full": "Channai To Bangalore High Way, Poigai, Poigai", "addr:postcode": "635114", "addr:state": "Tamil Nadu", "name": "Poigai Government Hospital", "source": "OpenGovernmentData", "addr:subdistrict": null, "addr:block": "Anaicut", "phone": null, "addr:city": null, "addr:housenumber": null, "operator:type": null, "alt_name": null, "email": null, "name:ml": null, "name:ta": null, "wikidata": null, "wikimedia_commons": null, "wikipedia": null, "building": null, "area": null }, "geometry": { "type": "Point", "coordinates": [ 79.0567052, 12.9153169 ] } },
{ "type": "Feature", "properties": { "element": "node", "id": 7257289036, "addr:street": null, "amenity": "hospital", "designation": null, "emergency": null, "healthcare": "hospital", "healthcare:speciality": null, "name:en": null, "operator": null, "operator:wikidata": null, "website": null, "addr:district": "Vellore", "addr:full": "Vellore, Arani Road, Velapadi", "addr:postcode": "632001", "addr:state": "Tamil Nadu", "name": "Varshini Hospital, Vellore", "source": "OpenGovernmentData", "addr:subdistrict": null, "addr:block": "Vellore Corp", "phone": null, "addr:city": null, "addr:housenumber": null, "operator:type": null, "alt_name": null, "email": null, "name:ml": null, "name:ta": null, "wikidata": null, "wikimedia_commons": null, "wikipedia": null, "building": null, "area": null }, "geometry": { "type": "Point", "coordinates": [ 79.1355217, 12.9059984 ] } },
{ "type": "Feature", "properties": { "element": "node", "id": 7257289043, "addr:street": null, "amenity": "hospital", "designation": null, "emergency": null, "healthcare": "hospital", "healthcare:speciality": null, "name:en": null, "operator": null, "operator:wikidata": null, "website": null, "addr:district": "Vellore", "addr:full": "Vellore, Thiyagarajapuram", "addr:postcode": "632001", "addr:state": "Tamil Nadu", "name": "Arun Hospital", "source": "OpenGovernmentData", "addr:subdistrict": null, "addr:block": "Vellore Corp", "phone": null, "addr:city": null, "addr:housenumber": null, "operator:type": null, "alt_name": null, "email": null, "name:ml": null, "name:ta": null, "wikidata": null, "wikimedia_commons": null, "wikipedia": null, "building": null, "area": null }, "geometry": { "type": "Point", "coordinates": [ 79.1334705, 12.9030309 ] } },
{ "type": "Feature", "properties": { "element": "node", "id": 7257289044, "addr:street": null, "amenity": "hospital", "designation": null, "emergency": null, "healthcare": null, "healthcare:speciality": null, "name:en": null, "operator": null, "operator:wikidata": null, "website": null, "addr:district": "Vellore", "addr:full": "Pasumathur PHC, Near Government .Hr.School, Pasumathur, Netteri Road", "addr:postcode": "635803", "addr:state": "Tamil Nadu", "name": "Pasumathur Government Hospital", "source": "OpenGovernmentData", "addr:subdistrict": "Katpadi", "addr:block": "K.V.Kuppam", "phone": null, "addr:city": null, "addr:housenumber": null, "operator:type": null, "alt_name": null, "email": null, "name:ml": null, "name:ta": null, "wikidata": null, "wikimedia_commons": null, "wikipedia": null, "building": null, "area": null }, "geometry": { "type": "Point", "coordinates": [ 78.9425135, 12.9314139 ] } },
{ "type": "Feature", "properties": { "element": "node", "id": 7257289049, "addr:street": null, "amenity": "hospital", "designation": null, "emergency": null, "healthcare": "hospital", "healthcare:speciality": null, "name:en": null, "operator": null, "operator:wikidata": null, "website": null, "addr:district": "Vellore", "addr:full": "Government Pentland Hospital, Near Sri Krishna Residancy, Vellroe, Government Pentland Hospital Road", "addr:postcode": "632001", "addr:state": "Tamil Nadu", "name": "Government Pentland Hospital", "source": "OpenGovernmentData", "addr:subdistrict": null, "addr:block": "Vellore Corp", "phone": null, "addr:city": null, "addr:housenumber": null, "operator:type": null, "alt_name": null, "email": null, "name:ml": null, "name:ta": null, "wikidata": null, "wikimedia_commons": null, "wikipedia": null, "building": null, "area": null }, "geometry": { "type": "Point", "coordinates": [ 79.1346498, 12.9156633 ] } },
{ "type": "Feature", "properties": { "element": "node", "id": 7257289055, "addr:street": null, "amenity": "hospital", "designation": null, "emergency": null, "healthcare": "hospital", "healthcare:speciality": null, "name:en": null, "operator": null, "operator:wikidata": null, "website": null, "addr:district": "Vellore", "addr:full": "Vellore, Masilamani Hostel Road, Officers Line", "addr:postcode": "632001", "addr:state": "Tamil Nadu", "name": "Mummy Hospital, Vellore", "source": "OpenGovernmentData", "addr:subdistrict": null, "addr:block": "Vellore Corp", "phone": null, "addr:city": null, "addr:housenumber": null, "operator:type": null, "alt_name": null, "email": null, "name:ml": null, "name:ta": null, "wikidata": null, "wikimedia_commons": null, "wikipedia": null, "building": null, "area": null }, "geometry": { "type": "Point", "coordinates": [ 79.131432, 12.91051 ] } },
{ "type": "Feature", "properties": { "element": "node", "id": 7257289063, "addr:street": null, "amenity": "hospital", "designation": null, "emergency": null, "healthcare": "hospital", "healthcare:speciality": null, "name:en": null, "operator": null, "operator:wikidata": null, "website": null, "addr:district": "Vellore", "addr:full": "Gvmch, Near By Venkateswara Polytechnic, Adukkamparai, Arani Road, Opposite Staff Quarters", "addr:postcode": "632011", "addr:state": "Tamil Nadu", "name": "Vellore Medical College And Hospital", "source": "OpenGovernmentData", "addr:subdistrict": null, "addr:block": "Vellore Corp", "phone": null, "addr:city": null, "addr:housenumber": null, "operator:type": null, "alt_name": null, "email": null, "name:ml": null, "name:ta": null, "wikidata": null, "wikimedia_commons": null, "wikipedia": null, "building": null, "area": null }, "geometry": { "type": "Point", "coordinates": [ 79.1366903, 12.8441327 ] } },
{ "type": "Feature", "properties": { "element": "node", "id": 7257289077, "addr:street": null, "amenity": "hospital", "designation": null, "emergency": null, "healthcare": null, "healthcare:speciality": null, "name:en": null, "operator": null, "operator:wikidata": null, "website": null, "addr:district": "Vellore", "addr:full": "Polur - Vellore Rd, Ramalinga Nagar, Edyansathu, Vellore", "addr:postcode": "632002", "addr:state": "Tamil Nadu", "name": "Dinesh Hospital, Vellore", "source": "OpenGovernmentData", "addr:subdistrict": null, "addr:block": "Vellore Corp", "phone": null, "addr:city": null, "addr:housenumber": null, "operator:type": null, "alt_name": null, "email": null, "name:ml": null, "name:ta": null, "wikidata": null, "wikimedia_commons": null, "wikipedia": null, "building": null, "area": null }, "geometry": { "type": "Point", "coordinates": [ 79.133123, 12.872987 ] } },
{ "type": "Feature", "properties": { "element": "node", "id": 7257289125, "addr:street": null, "amenity": "hospital", "designation": null, "emergency": null, "healthcare": "hospital", "healthcare:speciality": null, "name:en": null, "operator": null, "operator:wikidata": null, "website": null, "addr:district": "Vellore", "addr:full": "Sri Narayani Hospital & Research Centre, Ariyur, Vellroe, Thirumalaikodi", "addr:postcode": "632055", "addr:state": "Tamil Nadu", "name": "Sri Narayani Hospital & Research Centre, Ariyur", "source": "OpenGovernmentData", "addr:subdistrict": null, "addr:block": "Vellore Corp", "phone": null, "addr:city": null, "addr:housenumber": null, "operator:type": null, "alt_name": null, "email": null, "name:ml": null, "name:ta": null, "wikidata": null, "wikimedia_commons": null, "wikipedia": null, "building": null, "area": null }, "geometry": { "type": "Point", "coordinates": [ 79.0900539, 12.8704789 ] } },
{ "type": "Feature", "properties": { "element": "node", "id": 7257289127, "addr:street": null, "amenity": "hospital", "designation": null, "emergency": null, "healthcare": "hospital", "healthcare:speciality": null, "name:en": null, "operator": null, "operator:wikidata": null, "website": null, "addr:district": "Vellore", "addr:full": "Vellore, Thennamaram st", "addr:postcode": "632001", "addr:state": "Tamil Nadu", "name": "Dr. Santhakumari Hospital", "source": "OpenGovernmentData", "addr:subdistrict": null, "addr:block": "Vellore Corp", "phone": null, "addr:city": null, "addr:housenumber": null, "operator:type": null, "alt_name": null, "email": null, "name:ml": null, "name:ta": null, "wikidata": null, "wikimedia_commons": null, "wikipedia": null, "building": null, "area": null }, "geometry": { "type": "Point", "coordinates": [ 79.1255813, 12.908625 ] } },
{ "type": "Feature", "properties": { "element": "node", "id": 7257421526, "addr:street": null, "amenity": "hospital", "designation": null, "emergency": null, "healthcare": "hospital", "healthcare:speciality": null, "name:en": null, "operator": null, "operator:wikidata": null, "website": null, "addr:district": "Vellore", "addr:full": "18, Kosa Annamalai St, Chunambupet, Ambapuram, Gudiyattam", "addr:postcode": "632602", "addr:state": "Tamil Nadu", "name": "Gopalakrishna Hospital, Gudiyatham", "source": "OpenGovernmentData", "addr:subdistrict": "Gudiyatham", "addr:block": "Gudiyatham Mpty", "phone": null, "addr:city": null, "addr:housenumber": null, "operator:type": null, "alt_name": null, "email": null, "name:ml": null, "name:ta": null, "wikidata": null, "wikimedia_commons": null, "wikipedia": null, "building": null, "area": null }, "geometry": { "type": "Point", "coordinates": [ 78.8685493, 12.9453972 ] } },
{ "type": "Feature", "properties": { "element": "node", "id": 7257421534, "addr:street": null, "amenity": "hospital", "designation": null, "emergency": null, "healthcare": null, "healthcare:speciality": null, "name:en": null, "operator": null, "operator:wikidata": null, "website": null, "addr:district": "Vellore", "addr:full": "Govt Hospital, Kanguppam", "addr:postcode": "632209", "addr:state": "Tamil Nadu", "name": "Government Hospital Kangkuppam", "source": "OpenGovernmentData", "addr:subdistrict": "Katpadi", "addr:block": "K.V.Kuppam", "phone": null, "addr:city": null, "addr:housenumber": null, "operator:type": null, "alt_name": null, "email": null, "name:ml": null, "name:ta": null, "wikidata": null, "wikimedia_commons": null, "wikipedia": null, "building": null, "area": null }, "geometry": { "type": "Point", "coordinates": [ 78.9656826, 12.9893488 ] } },
{ "type": "Feature", "properties": { "element": "node", "id": 7257421535, "addr:street": null, "amenity": "hospital", "designation": null, "emergency": null, "healthcare": null, "healthcare:speciality": null, "name:en": null, "operator": null, "operator:wikidata": null, "website": null, "addr:district": "Vellore", "addr:full": "Vaduganthangal CHC, Near Panchyat Ofice, Vaduganthangal, Gudiyatham ,Katpadi Road", "addr:postcode": "632204", "addr:state": "Tamil Nadu", "name": "Government Hospital, Vaduganthangal", "source": "OpenGovernmentData", "addr:subdistrict": "Katpadi", "addr:block": "K.V.Kuppam", "phone": null, "addr:city": null, "addr:housenumber": null, "operator:type": null, "alt_name": null, "email": null, "name:ml": null, "name:ta": null, "wikidata": null, "wikimedia_commons": null, "wikipedia": null, "building": null, "area": null }, "geometry": { "type": "Point", "coordinates": [ 79.015876, 12.96365 ] } },
{ "type": "Feature", "properties": { "element": "node", "id": 7257421542, "addr:street": null, "amenity": "hospital", "designation": null, "emergency": null, "healthcare": "hospital", "healthcare:speciality": null, "name:en": null, "operator": null, "operator:wikidata": null, "website": null, "addr:district": "Vellore", "addr:full": "Behind Sub Court, Phase 2, Sathuvachari, Vellore", "addr:postcode": "632009", "addr:state": "Tamil Nadu", "name": "Baba Hospital, Sathuvachari", "source": "OpenGovernmentData", "addr:subdistrict": null, "addr:block": "Vellore Corp", "phone": null, "addr:city": null, "addr:housenumber": null, "operator:type": null, "alt_name": null, "email": null, "name:ml": null, "name:ta": null, "wikidata": null, "wikimedia_commons": null, "wikipedia": null, "building": null, "area": null }, "geometry": { "type": "Point", "coordinates": [ 79.158739, 12.93425 ] } },
{ "type": "Feature", "properties": { "element": "node", "id": 7257421567, "addr:street": null, "amenity": "hospital", "designation": null, "emergency": null, "healthcare": null, "healthcare:speciality": null, "name:en": null, "operator": null, "operator:wikidata": null, "website": null, "addr:district": "Vellore", "addr:full": "Ruhsa Campus, Kavanur, Ruhsa Campus, Kavanur", "addr:postcode": "632209", "addr:state": "Tamil Nadu", "name": "Ruhsa, Kavanur", "source": "OpenGovernmentData", "addr:subdistrict": "Gudiyatham", "addr:block": null, "phone": null, "addr:city": null, "addr:housenumber": null, "operator:type": null, "alt_name": null, "email": null, "name:ml": null, "name:ta": null, "wikidata": null, "wikimedia_commons": null, "wikipedia": null, "building": null, "area": null }, "geometry": { "type": "Point", "coordinates": [ 78.971831, 12.95111 ] } },
{ "type": "Feature", "properties": { "element": "node", "id": 7257421568, "addr:street": null, "amenity": "hospital", "designation": null, "emergency": null, "healthcare": "hospital", "healthcare:speciality": null, "name:en": null, "operator": null, "operator:wikidata": null, "website": null, "addr:district": "Vellore", "addr:full": "Vellore, Phase-2 , Sathuvachari", "addr:postcode": "632009", "addr:state": "Tamil Nadu", "name": "Sarada Multispeciality Hospital", "source": "OpenGovernmentData", "addr:subdistrict": null, "addr:block": "Vellore Corp", "phone": null, "addr:city": null, "addr:housenumber": null, "operator:type": null, "alt_name": null, "email": null, "name:ml": null, "name:ta": null, "wikidata": null, "wikimedia_commons": null, "wikipedia": null, "building": null, "area": null }, "geometry": { "type": "Point", "coordinates": [ 79.156815, 12.93239 ] } },
{ "type": "Feature", "properties": { "element": "node", "id": 7257421579, "addr:street": null, "amenity": "hospital", "designation": null, "emergency": null, "healthcare": null, "healthcare:speciality": null, "name:en": null, "operator": null, "operator:wikidata": null, "website": null, "addr:district": "Vellore", "addr:full": "K.V.Kuppam Phc, Nil, K.V.Kuppam, Melmoil Road", "addr:postcode": "632201", "addr:state": "Tamil Nadu", "name": "Government Hospital K.V.Kuppam", "source": "OpenGovernmentData", "addr:subdistrict": "Katpadi", "addr:block": "K.V.Kuppam", "phone": null, "addr:city": null, "addr:housenumber": null, "operator:type": null, "alt_name": null, "email": null, "name:ml": null, "name:ta": null, "wikidata": null, "wikimedia_commons": null, "wikipedia": null, "building": null, "area": null }, "geometry": { "type": "Point", "coordinates": [ 78.987091, 12.9622 ] } },
{ "type": "Feature", "properties": { "element": "node", "id": 7257421598, "addr:street": null, "amenity": "hospital", "designation": null, "emergency": null, "healthcare": "hospital", "healthcare:speciality": null, "name:en": null, "operator": null, "operator:wikidata": null, "website": null, "addr:district": "Vellore", "addr:full": "14 / 87, Vellore, 7Th Cross, Phase - 1, Housing Board Office Road, Sathuvachari", "addr:postcode": "632009", "addr:state": "Tamil Nadu", "name": "Sakthi Amma Hospital, Vellore", "source": "OpenGovernmentData", "addr:subdistrict": null, "addr:block": "Vellore Corp", "phone": null, "addr:city": null, "addr:housenumber": null, "operator:type": null, "alt_name": null, "email": null, "name:ml": null, "name:ta": null, "wikidata": null, "wikimedia_commons": null, "wikipedia": null, "building": null, "area": null }, "geometry": { "type": "Point", "coordinates": [ 79.1643137, 12.936069 ] } },
{ "type": "Feature", "properties": { "element": "node", "id": 7257421605, "addr:street": null, "amenity": "hospital", "designation": null, "emergency": null, "healthcare": null, "healthcare:speciality": null, "name:en": null, "operator": null, "operator:wikidata": null, "website": null, "addr:district": "Vellore", "addr:full": "Near Bus Stand, Pernampattu, Ambur Main Road", "addr:postcode": "635810", "addr:state": "Tamil Nadu", "name": "Pernampattu Government Hospital", "source": "OpenGovernmentData", "addr:subdistrict": "Ambur", "addr:block": "Pernampattu", "phone": null, "addr:city": null, "addr:housenumber": null, "operator:type": null, "alt_name": null, "email": null, "name:ml": null, "name:ta": null, "wikidata": null, "wikimedia_commons": null, "wikipedia": null, "building": null, "area": null }, "geometry": { "type": "Point", "coordinates": [ 78.7166738, 12.9323821 ] } },
{ "type": "Feature", "properties": { "element": "node", "id": 7257421609, "addr:street": null, "amenity": "hospital", "designation": null, "emergency": null, "healthcare": null, "healthcare:speciality": null, "name:en": null, "operator": null, "operator:wikidata": null, "website": null, "addr:district": "Vellore", "addr:full": "Serkadu PHC, Near Panchayay Office, Serkadu, Perumal Koil Street", "addr:postcode": "632106", "addr:state": "Tamil Nadu", "name": "Serkadu Government Hospital", "source": "OpenGovernmentData", "addr:subdistrict": "Katpadi", "addr:block": null, "phone": null, "addr:city": null, "addr:housenumber": null, "operator:type": null, "alt_name": null, "email": null, "name:ml": null, "name:ta": null, "wikidata": null, "wikimedia_commons": null, "wikipedia": null, "building": null, "area": null }, "geometry": { "type": "Point", "coordinates": [ 79.2173929, 13.0147452 ] } },
{ "type": "Feature", "properties": { "element": "node", "id": 7257421612, "addr:street": null, "amenity": "hospital", "designation": null, "emergency": null, "healthcare": "hospital", "healthcare:speciality": null, "name:en": null, "operator": null, "operator:wikidata": null, "website": null, "addr:district": "Vellore", "addr:full": "Gudiyatham, Punganur Amman Koil Street", "addr:postcode": "632602", "addr:state": "Tamil Nadu", "name": "Swamy Hospital", "source": "OpenGovernmentData", "addr:subdistrict": "Gudiyatham", "addr:block": "Gudiyatham Mpty", "phone": null, "addr:city": null, "addr:housenumber": null, "operator:type": null, "alt_name": null, "email": null, "name:ml": null, "name:ta": null, "wikidata": null, "wikimedia_commons": null, "wikipedia": null, "building": null, "area": null }, "geometry": { "type": "Point", "coordinates": [ 78.8696553, 12.9433459 ] } },
{ "type": "Feature", "properties": { "element": "node", "id": 7825122238, "addr:street": null, "amenity": "hospital", "designation": null, "emergency": null, "healthcare": "hospital", "healthcare:speciality": null, "name:en": null, "operator": null, "operator:wikidata": null, "website": null, "addr:district": "Vellore", "addr:full": null, "addr:postcode": "632006", "addr:state": "Tamil Nadu", "name": "Herbocare Hospital", "source": "Local Knowledge", "addr:subdistrict": null, "addr:block": null, "phone": null, "addr:city": null, "addr:housenumber": null, "operator:type": null, "alt_name": null, "email": null, "name:ml": null, "name:ta": null, "wikidata": null, "wikimedia_commons": null, "wikipedia": null, "building": null, "area": null }, "geometry": { "type": "Point", "coordinates": [ 79.1386445, 12.9597861 ] } },
{ "type": "Feature", "properties": { "element": "node", "id": 7825122240, "addr:street": null, "amenity": "hospital", "designation": null, "emergency": null, "healthcare": "hospital", "healthcare:speciality": null, "name:en": null, "operator": null, "operator:wikidata": null, "website": null, "addr:district": "Vellore", "addr:full": "Sainathapuram, RV Nagar", "addr:postcode": "632001", "addr:state": "Tamil Nadu", "name": "Ramachandra Hospital", "source": "Local Knowledge", "addr:subdistrict": null, "addr:block": null, "phone": null, "addr:city": null, "addr:housenumber": null, "operator:type": null, "alt_name": null, "email": null, "name:ml": null, "name:ta": null, "wikidata": null, "wikimedia_commons": null, "wikipedia": null, "building": null, "area": null }, "geometry": { "type": "Point", "coordinates": [ 79.1357186, 12.8936736 ] } },
{ "type": "Feature", "properties": { "element": "node", "id": 7825122245, "addr:street": null, "amenity": "hospital", "designation": null, "emergency": null, "healthcare": "hospital", "healthcare:speciality": null, "name:en": null, "operator": null, "operator:wikidata": null, "website": null, "addr:district": "Vellore", "addr:full": "Gandhi Nagar", "addr:postcode": "632006", "addr:state": "Tamil Nadu", "name": "Swasam Naturecure and Yoga Hospital", "source": "Local Knowledge", "addr:subdistrict": null, "addr:block": null, "phone": null, "addr:city": null, "addr:housenumber": null, "operator:type": null, "alt_name": null, "email": null, "name:ml": null, "name:ta": null, "wikidata": null, "wikimedia_commons": null, "wikipedia": null, "building": null, "area": null }, "geometry": { "type": "Point", "coordinates": [ 79.1418751, 12.9566197 ] } },
{ "type": "Feature", "properties": { "element": "node", "id": 7825122246, "addr:street": null, "amenity": "hospital", "designation": null, "emergency": null, "healthcare": "hospital", "healthcare:speciality": null, "name:en": null, "operator": null, "operator:wikidata": null, "website": null, "addr:district": "Vellore", "addr:full": "Velapadi, Vellore", "addr:postcode": "632001", "addr:state": "Tamil Nadu", "name": "S.K. Nambi Hospital", "source": "Local Knowledge", "addr:subdistrict": null, "addr:block": null, "phone": null, "addr:city": null, "addr:housenumber": null, "operator:type": null, "alt_name": null, "email": null, "name:ml": null, "name:ta": null, "wikidata": null, "wikimedia_commons": null, "wikipedia": null, "building": null, "area": null }, "geometry": { "type": "Point", "coordinates": [ 79.1352986, 12.905718 ] } },
{ "type": "Feature", "properties": { "element": "node", "id": 7825122249, "addr:street": null, "amenity": "hospital", "designation": null, "emergency": null, "healthcare": "hospital", "healthcare:speciality": null, "name:en": null, "operator": null, "operator:wikidata": null, "website": null, "addr:district": "Vellore", "addr:full": null, "addr:postcode": "632001", "addr:state": "Tamil Nadu", "name": "Vellore Hospital", "source": "Local Knowledge", "addr:subdistrict": null, "addr:block": null, "phone": null, "addr:city": null, "addr:housenumber": null, "operator:type": null, "alt_name": null, "email": null, "name:ml": null, "name:ta": null, "wikidata": null, "wikimedia_commons": null, "wikipedia": null, "building": null, "area": null }, "geometry": { "type": "Point", "coordinates": [ 79.1316299, 12.9016809 ] } },
{ "type": "Feature", "properties": { "element": "node", "id": 7825122250, "addr:street": null, "amenity": "hospital", "designation": null, "emergency": null, "healthcare": "hospital", "healthcare:speciality": null, "name:en": null, "operator": null, "operator:wikidata": null, "website": null, "addr:district": "Vellore", "addr:full": "R N Palayam, Vellore", "addr:postcode": "632001", "addr:state": "Tamil Nadu", "name": "Church Hospital", "source": "Local Knowledge", "addr:subdistrict": null, "addr:block": null, "phone": null, "addr:city": null, "addr:housenumber": null, "operator:type": null, "alt_name": null, "email": null, "name:ml": null, "name:ta": null, "wikidata": null, "wikimedia_commons": null, "wikipedia": null, "building": null, "area": null }, "geometry": { "type": "Point", "coordinates": [ 79.1251947, 12.9082477 ] } },
{ "type": "Feature", "properties": { "element": "node", "id": 7825122251, "addr:street": null, "amenity": "hospital", "designation": null, "emergency": null, "healthcare": "hospital", "healthcare:speciality": null, "name:en": null, "operator": null, "operator:wikidata": null, "website": null, "addr:district": "Vellore", "addr:full": null, "addr:postcode": "632006", "addr:state": "Tamil Nadu", "name": "Shivam Hospital", "source": "Local Knowledge", "addr:subdistrict": null, "addr:block": null, "phone": null, "addr:city": null, "addr:housenumber": null, "operator:type": null, "alt_name": null, "email": null, "name:ml": null, "name:ta": null, "wikidata": null, "wikimedia_commons": null, "wikipedia": null, "building": null, "area": null }, "geometry": { "type": "Point", "coordinates": [ 79.144835, 12.9522294 ] } },
{ "type": "Feature", "properties": { "element": "node", "id": 7825122255, "addr:street": null, "amenity": "hospital", "designation": null, "emergency": null, "healthcare": "hospital", "healthcare:speciality": null, "name:en": null, "operator": null, "operator:wikidata": null, "website": null, "addr:district": "Vellore", "addr:full": "Srinivasan Nagar", "addr:postcode": "632001", "addr:state": "Tamil Nadu", "name": "G P Hospital", "source": "Local Knowledge", "addr:subdistrict": null, "addr:block": null, "phone": null, "addr:city": null, "addr:housenumber": null, "operator:type": null, "alt_name": null, "email": null, "name:ml": null, "name:ta": null, "wikidata": null, "wikimedia_commons": null, "wikipedia": null, "building": null, "area": null }, "geometry": { "type": "Point", "coordinates": [ 79.1352036, 12.9154281 ] } },
{ "type": "Feature", "properties": { "element": "node", "id": 7825122256, "addr:street": null, "amenity": "hospital", "designation": null, "emergency": null, "healthcare": "hospital", "healthcare:speciality": null, "name:en": null, "operator": null, "operator:wikidata": null, "website": null, "addr:district": "Vellore", "addr:full": null, "addr:postcode": "632006", "addr:state": "Tamil Nadu", "name": "Kurinji Hospital", "source": "Local Knowledge", "addr:subdistrict": null, "addr:block": null, "phone": null, "addr:city": null, "addr:housenumber": null, "operator:type": null, "alt_name": null, "email": null, "name:ml": null, "name:ta": null, "wikidata": null, "wikimedia_commons": null, "wikipedia": null, "building": null, "area": null }, "geometry": { "type": "Point", "coordinates": [ 79.1414803, 12.9565077 ] } },
{ "type": "Feature", "properties": { "element": "node", "id": 7825122257, "addr:street": null, "amenity": "hospital", "designation": null, "emergency": null, "healthcare": "hospital", "healthcare:speciality": null, "name:en": null, "operator": null, "operator:wikidata": null, "website": null, "addr:district": "Vellore", "addr:full": "Mahalakshmi Nagar, Thorapadi", "addr:postcode": "632055", "addr:state": "Tamil Nadu", "name": "Best Hospital", "source": "Local Knowledge", "addr:subdistrict": null, "addr:block": null, "phone": null, "addr:city": null, "addr:housenumber": null, "operator:type": null, "alt_name": null, "email": null, "name:ml": null, "name:ta": null, "wikidata": null, "wikimedia_commons": null, "wikipedia": null, "building": null, "area": null }, "geometry": { "type": "Point", "coordinates": [ 79.1066157, 12.8773311 ] } },
{ "type": "Feature", "properties": { "element": "node", "id": 7825122262, "addr:street": null, "amenity": "hospital", "designation": null, "emergency": null, "healthcare": "hospital", "healthcare:speciality": null, "name:en": null, "operator": null, "operator:wikidata": null, "website": null, "addr:district": "Vellore", "addr:full": "Saidapet", "addr:postcode": "632004", "addr:state": "Tamil Nadu", "name": "Dr. Venkateswara Rao Hospital", "source": "Local Knowledge", "addr:subdistrict": null, "addr:block": null, "phone": null, "addr:city": null, "addr:housenumber": null, "operator:type": null, "alt_name": null, "email": null, "name:ml": null, "name:ta": null, "wikidata": null, "wikimedia_commons": null, "wikipedia": null, "building": null, "area": null }, "geometry": { "type": "Point", "coordinates": [ 79.1342217, 12.9163413 ] } },
{ "type": "Feature", "properties": { "element": "node", "id": 7825122263, "addr:street": null, "amenity": "hospital", "designation": null, "emergency": null, "healthcare": "hospital", "healthcare:speciality": null, "name:en": null, "operator": null, "operator:wikidata": null, "website": null, "addr:district": "Vellore", "addr:full": "Venkatraman Nagar, Katpadi", "addr:postcode": "632006", "addr:state": "Tamil Nadu", "name": "Akshaya General and Dental Hospital", "source": "Local Knowledge", "addr:subdistrict": null, "addr:block": null, "phone": null, "addr:city": null, "addr:housenumber": null, "operator:type": null, "alt_name": null, "email": null, "name:ml": null, "name:ta": null, "wikidata": null, "wikimedia_commons": null, "wikipedia": null, "building": null, "area": null }, "geometry": { "type": "Point", "coordinates": [ 79.136876, 12.9577933 ] } },
{ "type": "Feature", "properties": { "element": "node", "id": 7825122265, "addr:street": null, "amenity": "hospital", "designation": null, "emergency": null, "healthcare": "hospital", "healthcare:speciality": null, "name:en": null, "operator": null, "operator:wikidata": null, "website": null, "addr:district": "Vellore", "addr:full": "Velapadi", "addr:postcode": "632001", "addr:state": "Tamil Nadu", "name": "K K R Hospital", "source": "Local Knowledge", "addr:subdistrict": null, "addr:block": null, "phone": null, "addr:city": null, "addr:housenumber": null, "operator:type": null, "alt_name": null, "email": null, "name:ml": null, "name:ta": null, "wikidata": null, "wikimedia_commons": null, "wikipedia": null, "building": null, "area": null }, "geometry": { "type": "Point", "coordinates": [ 79.135956, 12.904517 ] } },
{ "type": "Feature", "properties": { "element": "node", "id": 7825122267, "addr:street": null, "amenity": "hospital", "designation": null, "emergency": null, "healthcare": "hospital", "healthcare:speciality": null, "name:en": null, "operator": null, "operator:wikidata": null, "website": null, "addr:district": "Vellore", "addr:full": "Konavattam", "addr:postcode": "632013", "addr:state": "Tamil Nadu", "name": "C.M Dental Clinic and Hospital", "source": "Local Knowledge", "addr:subdistrict": null, "addr:block": null, "phone": null, "addr:city": null, "addr:housenumber": null, "operator:type": null, "alt_name": null, "email": null, "name:ml": null, "name:ta": null, "wikidata": null, "wikimedia_commons": null, "wikipedia": null, "building": null, "area": null }, "geometry": { "type": "Point", "coordinates": [ 79.1125805, 12.9218545 ] } },
{ "type": "Feature", "properties": { "element": "node", "id": 7825122268, "addr:street": null, "amenity": "hospital", "designation": null, "emergency": null, "healthcare": "hospital", "healthcare:speciality": null, "name:en": null, "operator": null, "operator:wikidata": null, "website": null, "addr:district": "Vellore", "addr:full": "Suthanthira Ponvizha Nagar, Gandhi Nagar", "addr:postcode": "632006", "addr:state": "Tamil Nadu", "name": "Sterling Diabetes Hospital", "source": "Local Knowledge", "addr:subdistrict": null, "addr:block": null, "phone": null, "addr:city": null, "addr:housenumber": null, "operator:type": null, "alt_name": null, "email": null, "name:ml": null, "name:ta": null, "wikidata": null, "wikimedia_commons": null, "wikipedia": null, "building": null, "area": null }, "geometry": { "type": "Point", "coordinates": [ 79.1432088, 12.9578429 ] } },
{ "type": "Feature", "properties": { "element": "node", "id": 7825122270, "addr:street": null, "amenity": "hospital", "designation": null, "emergency": null, "healthcare": "hospital", "healthcare:speciality": null, "name:en": null, "operator": null, "operator:wikidata": null, "website": null, "addr:district": "Vellore", "addr:full": "Virupatchipuram, RV Nagar", "addr:postcode": "632002", "addr:state": "Tamil Nadu", "name": "Storke Hospital", "source": "Local Knowledge", "addr:subdistrict": null, "addr:block": null, "phone": null, "addr:city": null, "addr:housenumber": null, "operator:type": null, "alt_name": null, "email": null, "name:ml": null, "name:ta": null, "wikidata": null, "wikimedia_commons": null, "wikipedia": null, "building": null, "area": null }, "geometry": { "type": "Point", "coordinates": [ 79.1344238, 12.8898385 ] } },
{ "type": "Feature", "properties": { "element": "node", "id": 7825122271, "addr:street": null, "amenity": "hospital", "designation": null, "emergency": null, "healthcare": "hospital", "healthcare:speciality": null, "name:en": null, "operator": null, "operator:wikidata": null, "website": null, "addr:district": "Vellore", "addr:full": "Kosapet", "addr:postcode": "632001", "addr:state": "Tamil Nadu", "name": "Cure Multispeciality Hospital", "source": "Local Knowledge", "addr:subdistrict": null, "addr:block": null, "phone": null, "addr:city": null, "addr:housenumber": null, "operator:type": null, "alt_name": null, "email": null, "name:ml": null, "name:ta": null, "wikidata": null, "wikimedia_commons": null, "wikipedia": null, "building": null, "area": null }, "geometry": { "type": "Point", "coordinates": [ 79.1333437, 12.909147 ] } },
{ "type": "Feature", "properties": { "element": "node", "id": 7825122277, "addr:street": null, "amenity": "hospital", "designation": null, "emergency": null, "healthcare": "hospital", "healthcare:speciality": null, "name:en": null, "operator": null, "operator:wikidata": null, "website": null, "addr:district": "Vellore", "addr:full": "Sankaranpalayam", "addr:postcode": "632001", "addr:state": "Tamil Nadu", "name": "Dr. Pari's Hospital", "source": "Local Knowledge", "addr:subdistrict": null, "addr:block": null, "phone": null, "addr:city": null, "addr:housenumber": null, "operator:type": null, "alt_name": null, "email": null, "name:ml": null, "name:ta": null, "wikidata": null, "wikimedia_commons": null, "wikipedia": null, "building": null, "area": null }, "geometry": { "type": "Point", "coordinates": [ 79.1324839, 12.9030108 ] } },
{ "type": "Feature", "properties": { "element": "node", "id": 7825122282, "addr:street": null, "amenity": "hospital", "designation": null, "emergency": null, "healthcare": "hospital", "healthcare:speciality": null, "name:en": null, "operator": null, "operator:wikidata": null, "website": null, "addr:district": "Vellore", "addr:full": "Sarbanamedu", "addr:postcode": "632012", "addr:state": "Tamil Nadu", "name": "Fathima Hospital", "source": "Local Knowledge", "addr:subdistrict": null, "addr:block": null, "phone": null, "addr:city": null, "addr:housenumber": null, "operator:type": null, "alt_name": null, "email": null, "name:ml": null, "name:ta": null, "wikidata": null, "wikimedia_commons": null, "wikipedia": null, "building": null, "area": null }, "geometry": { "type": "Point", "coordinates": [ 79.138924, 12.9170061 ] } },
{ "type": "Feature", "properties": { "element": "node", "id": 7825122286, "addr:street": null, "amenity": "hospital", "designation": null, "emergency": null, "healthcare": "hospital", "healthcare:speciality": null, "name:en": null, "operator": null, "operator:wikidata": null, "website": null, "addr:district": "Vellore", "addr:full": "Kosapet", "addr:postcode": "632001", "addr:state": "Tamil Nadu", "name": "Dhinesh Hospitals", "source": "Local Knowledge", "addr:subdistrict": null, "addr:block": null, "phone": null, "addr:city": null, "addr:housenumber": null, "operator:type": null, "alt_name": null, "email": null, "name:ml": null, "name:ta": null, "wikidata": null, "wikimedia_commons": null, "wikipedia": null, "building": null, "area": null }, "geometry": { "type": "Point", "coordinates": [ 79.133113, 12.9086238 ] } },
{ "type": "Feature", "properties": { "element": "node", "id": 7825122287, "addr:street": null, "amenity": "hospital", "designation": null, "emergency": null, "healthcare": "hospital", "healthcare:speciality": null, "name:en": null, "operator": null, "operator:wikidata": null, "website": null, "addr:district": "Vellore", "addr:full": "Sathuvachari", "addr:postcode": "632009", "addr:state": "Tamil Nadu", "name": "VB Hospital", "source": "Local Knowledge", "addr:subdistrict": null, "addr:block": null, "phone": null, "addr:city": null, "addr:housenumber": null, "operator:type": null, "alt_name": null, "email": null, "name:ml": null, "name:ta": null, "wikidata": null, "wikimedia_commons": null, "wikipedia": null, "building": null, "area": null }, "geometry": { "type": "Point", "coordinates": [ 79.156067, 12.935049 ] } },
{ "type": "Feature", "properties": { "element": "node", "id": 7825122288, "addr:street": null, "amenity": "hospital", "designation": null, "emergency": null, "healthcare": "hospital", "healthcare:speciality": null, "name:en": null, "operator": null, "operator:wikidata": null, "website": null, "addr:district": "Vellore", "addr:full": null, "addr:postcode": "632004", "addr:state": "Tamil Nadu", "name": "Nirmal Eye Hospital", "source": "Local Knowledge", "addr:subdistrict": null, "addr:block": null, "phone": null, "addr:city": null, "addr:housenumber": null, "operator:type": null, "alt_name": null, "email": null, "name:ml": null, "name:ta": null, "wikidata": null, "wikimedia_commons": null, "wikipedia": null, "building": null, "area": null }, "geometry": { "type": "Point", "coordinates": [ 79.134335, 12.9148799 ] } },
{ "type": "Feature", "properties": { "element": "node", "id": 7825122290, "addr:street": null, "amenity": "hospital", "designation": null, "emergency": null, "healthcare": "hospital", "healthcare:speciality": null, "name:en": null, "operator": null, "operator:wikidata": null, "website": null, "addr:district": "Vellore", "addr:full": "Kosapet", "addr:postcode": "632001", "addr:state": "Tamil Nadu", "name": "Gita Mathai Hospital", "source": "Local Knowledge", "addr:subdistrict": null, "addr:block": null, "phone": null, "addr:city": null, "addr:housenumber": null, "operator:type": null, "alt_name": null, "email": null, "name:ml": null, "name:ta": null, "wikidata": null, "wikimedia_commons": null, "wikipedia": null, "building": null, "area": null }, "geometry": { "type": "Point", "coordinates": [ 79.1400221, 12.9159232 ] } },
{ "type": "Feature", "properties": { "element": "node", "id": 7825122292, "addr:street": null, "amenity": "hospital", "designation": null, "emergency": null, "healthcare": "hospital", "healthcare:speciality": null, "name:en": null, "operator": null, "operator:wikidata": null, "website": null, "addr:district": "Vellore", "addr:full": "Sathuvachari", "addr:postcode": "632009", "addr:state": "Tamil Nadu", "name": "Jayanthi Hospital", "source": "Local Knowledge", "addr:subdistrict": null, "addr:block": null, "phone": null, "addr:city": null, "addr:housenumber": null, "operator:type": null, "alt_name": null, "email": null, "name:ml": null, "name:ta": null, "wikidata": null, "wikimedia_commons": null, "wikipedia": null, "building": null, "area": null }, "geometry": { "type": "Point", "coordinates": [ 79.1671117, 12.9362461 ] } },
{ "type": "Feature", "properties": { "element": "node", "id": 7825122294, "addr:street": null, "amenity": "hospital", "designation": null, "emergency": null, "healthcare": "hospital", "healthcare:speciality": "ophthalmology;optometry", "name:en": null, "operator": "Christian Medical College", "operator:wikidata": "Q3532259", "website": null, "addr:district": "Vellore", "addr:full": "Arni Road,Kosapet, Vellore,Tamil Nadu", "addr:postcode": "632001", "addr:state": "Tamil Nadu", "name": "Christian Medical College Schell Eye Hospital", "source": "OpenGovernmentData", "addr:subdistrict": null, "addr:block": null, "phone": null, "addr:city": null, "addr:housenumber": null, "operator:type": null, "alt_name": null, "email": null, "name:ml": null, "name:ta": null, "wikidata": null, "wikimedia_commons": null, "wikipedia": null, "building": null, "area": null }, "geometry": { "type": "Point", "coordinates": [ 79.1334901, 12.9126302 ] } },
{ "type": "Feature", "properties": { "element": "node", "id": 7825122295, "addr:street": null, "amenity": "hospital", "designation": null, "emergency": null, "healthcare": "hospital", "healthcare:speciality": null, "name:en": null, "operator": null, "operator:wikidata": null, "website": null, "addr:district": "Vellore", "addr:full": "Sathuvachari", "addr:postcode": "632009", "addr:state": "Tamil Nadu", "name": "DSF Hospital", "source": "Local Knowledge", "addr:subdistrict": null, "addr:block": null, "phone": null, "addr:city": null, "addr:housenumber": null, "operator:type": null, "alt_name": null, "email": null, "name:ml": null, "name:ta": null, "wikidata": null, "wikimedia_commons": null, "wikipedia": null, "building": null, "area": null }, "geometry": { "type": "Point", "coordinates": [ 79.1626536, 12.9366943 ] } },
{ "type": "Feature", "properties": { "element": "node", "id": 7825122298, "addr:street": null, "amenity": "hospital", "designation": null, "emergency": null, "healthcare": "hospital", "healthcare:speciality": null, "name:en": null, "operator": null, "operator:wikidata": null, "website": null, "addr:district": "Vellore", "addr:full": "Konnavattam", "addr:postcode": "632014", "addr:state": "Tamil Nadu", "name": "Jansi Hospital", "source": "Local Knowledge", "addr:subdistrict": null, "addr:block": null, "phone": null, "addr:city": null, "addr:housenumber": null, "operator:type": null, "alt_name": null, "email": null, "name:ml": null, "name:ta": null, "wikidata": null, "wikimedia_commons": null, "wikipedia": null, "building": null, "area": null }, "geometry": { "type": "Point", "coordinates": [ 79.1127269, 12.9218139 ] } },
{ "type": "Feature", "properties": { "element": "node", "id": 7825122304, "addr:street": null, "amenity": "hospital", "designation": null, "emergency": null, "healthcare": "hospital", "healthcare:speciality": null, "name:en": null, "operator": null, "operator:wikidata": null, "website": null, "addr:district": "Vellore", "addr:full": "Arni Road, Kosapet", "addr:postcode": "632001", "addr:state": "Tamil Nadu", "name": "Satish Eye Hospital", "source": "Local Knowledge", "addr:subdistrict": null, "addr:block": null, "phone": null, "addr:city": null, "addr:housenumber": null, "operator:type": null, "alt_name": null, "email": null, "name:ml": null, "name:ta": null, "wikidata": null, "wikimedia_commons": null, "wikipedia": null, "building": null, "area": null }, "geometry": { "type": "Point", "coordinates": [ 79.1332837, 12.9106339 ] } },
{ "type": "Feature", "properties": { "element": "node", "id": 7825122305, "addr:street": null, "amenity": "hospital", "designation": null, "emergency": null, "healthcare": "hospital", "healthcare:speciality": null, "name:en": null, "operator": null, "operator:wikidata": null, "website": null, "addr:district": "Vellore", "addr:full": null, "addr:postcode": "632001", "addr:state": "Tamil Nadu", "name": "Lakshmi Hospital", "source": "Local Knowledge", "addr:subdistrict": null, "addr:block": null, "phone": null, "addr:city": null, "addr:housenumber": null, "operator:type": null, "alt_name": null, "email": null, "name:ml": null, "name:ta": null, "wikidata": null, "wikimedia_commons": null, "wikipedia": null, "building": null, "area": null }, "geometry": { "type": "Point", "coordinates": [ 79.1271585, 12.9002559 ] } },
{ "type": "Feature", "properties": { "element": "node", "id": 7825122306, "addr:street": null, "amenity": "hospital", "designation": null, "emergency": null, "healthcare": "hospital", "healthcare:speciality": null, "name:en": null, "operator": null, "operator:wikidata": null, "website": null, "addr:district": "Vellore", "addr:full": "Vasanthapuram, Kosapet", "addr:postcode": "632001", "addr:state": "Tamil Nadu", "name": "Aruna Eye Hospital", "source": "Local Knowledge", "addr:subdistrict": null, "addr:block": null, "phone": null, "addr:city": null, "addr:housenumber": null, "operator:type": null, "alt_name": null, "email": null, "name:ml": null, "name:ta": null, "wikidata": null, "wikimedia_commons": null, "wikipedia": null, "building": null, "area": null }, "geometry": { "type": "Point", "coordinates": [ 79.1317331, 12.9112511 ] } },
{ "type": "Feature", "properties": { "element": "node", "id": 7825122311, "addr:street": null, "amenity": "hospital", "designation": null, "emergency": null, "healthcare": "hospital", "healthcare:speciality": null, "name:en": null, "operator": null, "operator:wikidata": null, "website": null, "addr:district": "Vellore", "addr:full": "Sainathapuram, RV Nagar", "addr:postcode": "632002", "addr:state": "Tamil Nadu", "name": "JJ Ravi Hospital", "source": "Local Knowledge", "addr:subdistrict": null, "addr:block": null, "phone": null, "addr:city": null, "addr:housenumber": null, "operator:type": null, "alt_name": null, "email": null, "name:ml": null, "name:ta": null, "wikidata": null, "wikimedia_commons": null, "wikipedia": null, "building": null, "area": null }, "geometry": { "type": "Point", "coordinates": [ 79.1354165, 12.8923296 ] } },
{ "type": "Feature", "properties": { "element": "node", "id": 7825122312, "addr:street": null, "amenity": "hospital", "designation": null, "emergency": null, "healthcare": "hospital", "healthcare:speciality": null, "name:en": null, "operator": null, "operator:wikidata": null, "website": null, "addr:district": "Vellore", "addr:full": "Thirumalaikodi", "addr:postcode": "632055", "addr:state": "Tamil Nadu", "name": "Balaji Hospital", "source": "Local Knowledge", "addr:subdistrict": null, "addr:block": null, "phone": null, "addr:city": null, "addr:housenumber": null, "operator:type": null, "alt_name": null, "email": null, "name:ml": null, "name:ta": null, "wikidata": null, "wikimedia_commons": null, "wikipedia": null, "building": null, "area": null }, "geometry": { "type": "Point", "coordinates": [ 79.085893, 12.8716238 ] } },
{ "type": "Feature", "properties": { "element": "node", "id": 7825122313, "addr:street": null, "amenity": "hospital", "designation": null, "emergency": null, "healthcare": "hospital", "healthcare:speciality": null, "name:en": null, "operator": null, "operator:wikidata": null, "website": null, "addr:district": "Vellore", "addr:full": "Velapadi", "addr:postcode": "632001", "addr:state": "Tamil Nadu", "name": "Jothi Hospital", "source": "Local Knowledge", "addr:subdistrict": null, "addr:block": null, "phone": null, "addr:city": null, "addr:housenumber": null, "operator:type": null, "alt_name": null, "email": null, "name:ml": null, "name:ta": null, "wikidata": null, "wikimedia_commons": null, "wikipedia": null, "building": null, "area": null }, "geometry": { "type": "Point", "coordinates": [ 79.1359967, 12.9031171 ] } },
{ "type": "Feature", "properties": { "element": "node", "id": 7825122317, "addr:street": null, "amenity": "hospital", "designation": null, "emergency": null, "healthcare": "hospital", "healthcare:speciality": null, "name:en": null, "operator": null, "operator:wikidata": null, "website": null, "addr:district": "Vellore", "addr:full": null, "addr:postcode": "632004", "addr:state": "Tamil Nadu", "name": "Naruvi Hospitals", "source": "Local Knowledge", "addr:subdistrict": null, "addr:block": null, "phone": null, "addr:city": null, "addr:housenumber": null, "operator:type": null, "alt_name": null, "email": null, "name:ml": null, "name:ta": null, "wikidata": null, "wikimedia_commons": null, "wikipedia": null, "building": null, "area": null }, "geometry": { "type": "Point", "coordinates": [ 79.1413316, 12.9341391 ] } },
{ "type": "Feature", "properties": { "element": "node", "id": 7825122319, "addr:street": null, "amenity": "hospital", "designation": null, "emergency": null, "healthcare": "hospital", "healthcare:speciality": null, "name:en": null, "operator": null, "operator:wikidata": null, "website": null, "addr:district": "Vellore", "addr:full": "Bagayam, Palavansathu", "addr:postcode": "632002", "addr:state": "Tamil Nadu", "name": "Premji Neuro Hospital", "source": "Local Knowledge", "addr:subdistrict": null, "addr:block": null, "phone": null, "addr:city": null, "addr:housenumber": null, "operator:type": null, "alt_name": null, "email": null, "name:ml": null, "name:ta": null, "wikidata": null, "wikimedia_commons": null, "wikipedia": null, "building": null, "area": null }, "geometry": { "type": "Point", "coordinates": [ 79.118794, 12.876936 ] } },
{ "type": "Feature", "properties": { "element": "node", "id": 7825122322, "addr:street": null, "amenity": "hospital", "designation": null, "emergency": null, "healthcare": "hospital", "healthcare:speciality": null, "name:en": null, "operator": null, "operator:wikidata": null, "website": null, "addr:district": "Vellore", "addr:full": null, "addr:postcode": "632001", "addr:state": "Tamil Nadu", "name": "Annamalai Hospital", "source": "Local Knowledge", "addr:subdistrict": null, "addr:block": null, "phone": null, "addr:city": null, "addr:housenumber": null, "operator:type": null, "alt_name": null, "email": null, "name:ml": null, "name:ta": null, "wikidata": null, "wikimedia_commons": null, "wikipedia": null, "building": null, "area": null }, "geometry": { "type": "Point", "coordinates": [ 79.137064, 12.9060705 ] } },
{ "type": "Feature", "properties": { "element": "node", "id": 7825122323, "addr:street": null, "amenity": "hospital", "designation": null, "emergency": null, "healthcare": "hospital", "healthcare:speciality": null, "name:en": null, "operator": null, "operator:wikidata": null, "website": null, "addr:district": "Vellore", "addr:full": null, "addr:postcode": "632006", "addr:state": "Tamil Nadu", "name": "BPR Hospital", "source": "Local Knowledge", "addr:subdistrict": null, "addr:block": null, "phone": null, "addr:city": null, "addr:housenumber": null, "operator:type": null, "alt_name": null, "email": null, "name:ml": null, "name:ta": null, "wikidata": null, "wikimedia_commons": null, "wikipedia": null, "building": null, "area": null }, "geometry": { "type": "Point", "coordinates": [ 79.1363165, 12.916289 ] } },
{ "type": "Feature", "properties": { "element": "node", "id": 10735185863, "addr:street": "Venkatraman Nagar 1st st.,", "amenity": "hospital", "designation": null, "emergency": null, "healthcare": "hospital", "healthcare:speciality": "dentist;endodontist;orthopaedics;implantology;microscopic_dentistry", "name:en": null, "operator": "Dr.V.N.Narendran", "operator:wikidata": null, "website": null, "addr:district": null, "addr:full": null, "addr:postcode": "632006", "addr:state": null, "name": "Nathan dental clinic", "source": null, "addr:subdistrict": null, "addr:block": null, "phone": null, "addr:city": "vellore", "addr:housenumber": "9", "operator:type": "private", "alt_name": null, "email": null, "name:ml": null, "name:ta": null, "wikidata": null, "wikimedia_commons": null, "wikipedia": null, "building": null, "area": null }, "geometry": { "type": "Point", "coordinates": [ 79.1352002, 12.9546956 ] } },
{ "type": "Feature", "properties": { "element": "way", "id": 120272987, "addr:street": "Ida Scudder Road", "amenity": "hospital", "designation": null, "emergency": null, "healthcare": "hospital", "healthcare:speciality": "intensive;physiatry;radiology;occupational;radiotherapy;nuclear;dental_oral_maxillo_facial_surgery;paediatrics;otolaryngology;endocrinology;infectious_diseases;neonatology;gynaecology;orthopaedics;paediatric_surgery;palliative;rheumatology", "name:en": null, "operator": null, "operator:wikidata": null, "website": "https://www.cmch-vellore.edu/", "addr:district": null, "addr:full": null, "addr:postcode": "632004", "addr:state": null, "name": "Christian Medical College Hospital", "source": null, "addr:subdistrict": null, "addr:block": null, "phone": "0416-2281000;+91 9498760000", "addr:city": "Vellore", "addr:housenumber": null, "operator:type": null, "alt_name": "CMC Vellore;CMCH;CMC, Vellore", "email": "pro@cmcvellore.ac.in", "name:ml": "   & , ", "name:ta": "  ", "wikidata": "Q3532259", "wikimedia_commons": "Category:Christian Medical College, Vellore", "wikipedia": "en:Christian Medical College Vellore", "building": null, "area": null }, "geometry": { "type": "Polygon", "coordinates": [ [ [ 79.1336712, 12.9256431 ], [ 79.1336553, 12.9245331 ], [ 79.1334688, 12.9245349 ], [ 79.1334713, 12.9243734 ], [ 79.1336145, 12.9243765 ], [ 79.1336451, 12.9238205 ], [ 79.1374546, 12.9244054 ], [ 79.1379242, 12.9247699 ], [ 79.1382808, 12.9253125 ], [ 79.1382721, 12.9260585 ], [ 79.1336712, 12.9256431 ] ] ] } },
{ "type": "Feature", "properties": { "element": "way", "id": 370765052, "addr:street": null, "amenity": "hospital", "designation": null, "emergency": null, "healthcare": "hospital", "healthcare:speciality": null, "name:en": null, "operator": "Sri Narayani Hospital and Research Centre (SNHRC)", "operator:wikidata": null, "website": null, "addr:district": null, "addr:full": null, "addr:postcode": null, "addr:state": null, "name": "Health Centre", "source": null, "addr:subdistrict": null, "addr:block": null, "phone": null, "addr:city": null, "addr:housenumber": null, "operator:type": "private", "alt_name": null, "email": null, "name:ml": null, "name:ta": null, "wikidata": null, "wikimedia_commons": null, "wikipedia": null, "building": null, "area": null }, "geometry": { "type": "Polygon", "coordinates": [ [ [ 79.154489, 12.9696154 ], [ 79.1544877, 12.9693841 ], [ 79.1547381, 12.9693724 ], [ 79.154735, 12.9695219 ], [ 79.1546653, 12.9695219 ], [ 79.1546653, 12.9696114 ], [ 79.154489, 12.9696154 ] ] ] } },
{ "type": "Feature", "properties": { "element": "way", "id": 485799111, "addr:street": null, "amenity": "hospital", "designation": null, "emergency": null, "healthcare": "hospital", "healthcare:speciality": null, "name:en": null, "operator": null, "operator:wikidata": null, "website": null, "addr:district": "Vellore", "addr:full": "Ambapuram, Gudiyattam", "addr:postcode": "632602", "addr:state": "Tamil Nadu", "name": "Government Hospital, Gudiyatham", "source": "OpenGovernmentData", "addr:subdistrict": "Gudiyatham", "addr:block": "Gudiyatham Mpty", "phone": null, "addr:city": null, "addr:housenumber": null, "operator:type": null, "alt_name": null, "email": null, "name:ml": null, "name:ta": null, "wikidata": null, "wikimedia_commons": null, "wikipedia": null, "building": "hospital", "area": null }, "geometry": { "type": "Polygon", "coordinates": [ [ [ 78.8707522, 12.9450345 ], [ 78.8707645, 12.9451937 ], [ 78.8708323, 12.9452027 ], [ 78.8708138, 12.9452807 ], [ 78.8707707, 12.9452928 ], [ 78.870783, 12.9453918 ], [ 78.8707306, 12.9454009 ], [ 78.8707368, 12.945569 ], [ 78.8702623, 12.945587 ], [ 78.8702561, 12.945551 ], [ 78.8700035, 12.945575 ], [ 78.8699757, 12.9452237 ], [ 78.8699665, 12.9447726 ], [ 78.8703362, 12.9446952 ], [ 78.8704934, 12.9447673 ], [ 78.8704749, 12.9448994 ], [ 78.8706351, 12.9449234 ], [ 78.8706412, 12.9450165 ], [ 78.8707522, 12.9450345 ] ] ] } },
{ "type": "Feature", "properties": { "element": "way", "id": 1169319670, "addr:street": null, "amenity": "hospital", "designation": null, "emergency": "yes", "healthcare": "hospital", "healthcare:speciality": null, "name:en": null, "operator": null, "operator:wikidata": null, "website": null, "addr:district": "Vellore", "addr:full": "Thiruvalam CHC, Opp. Government Boys Hr. Sec School, Thiruvalam, Sivanandha Nagar", "addr:postcode": "632515", "addr:state": "Tamil Nadu", "name": "Government Primary Healthcare Centre", "source": "OpenGovernmentData", "addr:subdistrict": "Katpadi", "addr:block": null, "phone": null, "addr:city": null, "addr:housenumber": null, "operator:type": "government", "alt_name": null, "email": null, "name:ml": null, "name:ta": null, "wikidata": null, "wikimedia_commons": null, "wikipedia": null, "building": null, "area": "yes" }, "geometry": { "type": "Polygon", "coordinates": [ [ [ 79.2547194, 12.9916571 ], [ 79.2546026, 12.9911109 ], [ 79.2542522, 12.9911626 ], [ 79.2543867, 12.9917023 ], [ 79.2546008, 12.9917368 ], [ 79.2546787, 12.9919972 ], [ 79.2547707, 12.9922168 ], [ 79.255223, 12.9920197 ], [ 79.2549872, 12.9916206 ], [ 79.2547194, 12.9916571 ] ] ] } }
]
}
