{"version": 0.6, "generator": "Overpass API 0.7.62.10 2d4cfc48", "osm3s": {"timestamp_osm_base": "2026-02-13T08:32:15Z", "copyright": "The data included in this document is from www.openstreetmap.org. The data is made available under ODbL."}, "elements": [{"type": "node", "id": 1348980043, "lat": 12.9238205, "lon": 79.1336451}, {"type": "node", "id": 1348980045, "lat": 12.9244054, "lon": 79.1374546}, {"type": "node", "id": 1348980046, "lat": 12.9247699, "lon": 79.1379242}, {"type": "node", "id": 1348980047, "lat": 12.9253125, "lon": 79.1382808}, {"type": "node", "id": 1348980048, "lat": 12.9256431, "lon": 79.1336712}, {"type": "node", "id": 1348980049, "lat": 12.9260585, "lon": 79.1382721}, {"type": "node", "id": 1754861232, "lat": 12.8793817, "lon": 79.1340678, "tags": {"addr:street": "Bagayam", "amenity": "hospital", "designation": "CHAD", "emergency": "yes", "healthcare": "hospital", "healthcare:speciality": "psychiatry", "name:en": "CHAD (CMC) Hospital", "operator": "Christian Medical College", "operator:wikidata": "Q3532259", "website": "http://cmcvellore.ac.in"}}, {"type": "node", "id": 3744530425, "lat": 12.9696154, "lon": 79.154489}, {"type": "node", "id": 3744530426, "lat": 12.9693841, "lon": 79.1544877}, {"type": "node", "id": 3744530428, "lat": 12.9696114, "lon": 79.1546653}, {"type": "node", "id": 4785647579, "lat": 12.9450345, "lon": 78.8707522}, {"type": "node", "id": 4785647580, "lat": 12.9451937, "lon": 78.8707645}, {"type": "node", "id": 4785647581, "lat": 12.9452027, "lon": 78.8708323}, {"type": "node", "id": 4785647582, "lat": 12.9452807, "lon": 78.8708138}, {"type": "node", "id": 4785647583, "lat": 12.9452928, "lon": 78.8707707}, {"type": "node", "id": 4785647584, "lat": 12.9453918, "lon": 78.870783}, {"type": "node", "id": 4785647585, "lat": 12.9454009, "lon": 78.8707306}, {"type": "node", "id": 4785647586, "lat": 12.945569, "lon": 78.8707368}, {"type": "node", "id": 4785647587, "lat": 12.945587, "lon": 78.8702623}, {"type": "node", "id": 4785647588, "lat": 12.945551, "lon": 78.8702561}, {"type": "node", "id": 4785647589, "lat": 12.945575, "lon": 78.8700035}, {"type": "node", "id": 4785647590, "lat": 12.9452237, "lon": 78.8699757}, {"type": "node", "id": 4785647592, "lat": 12.9446952, "lon": 78.8703362}, {"type": "node", "id": 4785647593, "lat": 12.9447673, "lon": 78.8704934}, {"type": "node", "id": 4785647594, "lat": 12.9448994, "lon": 78.8704749}, {"type": "node", "id": 4785647595, "lat": 12.9449234, "lon": 78.8706351}, {"type": "node", "id": 4785647596, "lat": 12.9450165, "lon": 78.8706412}, {"type": "node", "id": 5125037546, "lat": 12.9447726, "lon": 78.8699665}, {"type": "node", "id": 5487048413, "lat": 12.9695219, "lon": 79.154735}, {"type": "node", "id": 5487048414, "lat": 12.9695219, "lon": 79.1546653}, {"type": "node", "id": 5487048836, "lat": 12.9693724, "lon": 79.1547381}, {"type": "node", "id": 6914957590, "lat": 12.8709241, "lon": 79.089919, "tags": {"addr:district": "Vellore", "addr:full": "Thirumalaikodi,Near Narayani Amman Tmple", "addr:postcode": "632055", "addr:state": "Tamil Nadu", "amenity": "hospital", "healthcare": "hospital", "name": "Sri Narayani Hospital and Research Centre", "source": "OpenGovernmentData"}}, {"type": "node", "id": 6915394481, "lat": 12.9370042, "lon": 79.1629033, "tags": {"addr:district": "Vellore", "addr:full": "Sathuvachari,Vellore", "addr:postcode": "632009", "addr:state": "Tamil Nadu", "amenity": "hospital", "healthcare": "hospital", "healthcare:speciality": "multi speciality", "name": "A.S.A Hospital", "source": "OpenGovernmentData"}}, {"type": "node", "id": 6932166589, "lat": 12.9310563, "lon": 79.1554011, "tags": {"addr:district": "Vellore", "addr:full": "#10, 19Th Cross, Phase Ii,Sathuvachary", "addr:postcode": "632009", "addr:state": "Tamil Nadu", "amenity": "hospital", "healthcare": "hospital", "name": "Vellore Eye and Dental Hospital", "source": "OpenGovernmentData"}}, {"type": "node", "id": 6932966222, "lat": 12.9346861, "lon": 79.1536966, "tags": {"addr:district": "Vellore", "addr:full": "44,Arcot Road, Phase -Ii,Sathuvachary", "addr:postcode": "632009", "addr:state": "Tamil Nadu", "amenity": "hospital", "healthcare": "hospital", "name": "Nalam Medical Center and Hospital", "source": "OpenGovernmentData"}}, {"type": "node", "id": 6933824568, "lat": 12.9088334, "lon": 79.1316354, "tags": {"addr:district": "Vellore", "addr:full": "No 30 /1, Officers Lane", "addr:postcode": "632001", "addr:state": "Tamil Nadu", "amenity": "hospital", "healthcare": "hospital", "name": "Vasan Eye Care Hospital, Vellore", "source": "OpenGovernmentData"}}, {"type": "node", "id": 6936359946, "lat": 12.9684926, "lon": 79.1369931, "tags": {"addr:district": "Vellore", "addr:full": "Tarapada Vedu, Taj Complex, No. 7/8, Pilliyar Kovil Street, Road, Vellore", "addr:postcode": "632007", "addr:state": "Tamil Nadu", "addr:subdistrict": "Katpadi", "amenity": "hospital", "name": "Lakshmi Hospital, Vellore", "source": "OpenGovernmentData"}}, {"type": "node", "id": 6936359962, "lat": 12.9459476, "lon": 79.1373874, "tags": {"addr:district": "Vellore", "addr:full": "Kalinjur Kalinjur Gandhi Nagar Vellore", "addr:postcode": "632006", "addr:state": "Tamil Nadu", "amenity": "hospital", "healthcare": "hospital", "name": "Kumaran Hospital, Vellore", "source": "OpenGovernmentData"}}, {"type": "node", "id": 6936684357, "lat": 12.9938366, "lon": 79.1969506, "tags": {"addr:district": "Vellore", "addr:full": "Karigiri, The Schieffelin Institute Of Health Research & Training Centre, Karigiri", "addr:postcode": "632106", "addr:state": "Tamil Nadu", "addr:subdistrict": "Katpadi", "amenity": "hospital", "name": "The Schieffelin Institute Of Health Research & Training Centre, Karigiri", "source": "OpenGovernmentData"}}, {"type": "node", "id": 6936709044, "lat": 12.9343057, "lon": 79.152562, "tags": {"addr:block": "Vellore Corp", "addr:district": "Vellore", "addr:full": "Vellore, C-3 Arcot Rd Sathuvachari, Vellore -632009", "addr:postcode": "632009", "addr:state": "Tamil Nadu", "amenity": "hospital", "healthcare": "hospital", "name": "Dr Sivakumar Multi Speciality Hospital, Vellore", "source": "OpenGovernmentData"}}, {"type": "node", "id": 6936770777, "lat": 12.9382969, "lon": 79.1684776, "tags": {"addr:block": "Vellore Corp", "addr:district": "Vellore", "addr:full": "Vellore, Sathuvachary, Phase-I, Vallalar", "addr:postcode": "632009", "addr:state": "Tamil Nadu", "amenity": "hospital", "healthcare": "hospital", "name": "Sandhya Hospital", "source": "OpenGovernmentData"}}, {"type": "node", "id": 6937498370, "lat": 12.9106975, "lon": 79.131622, "tags": {"addr:district": "Vellore", "addr:full": "No.19/1, Officers Line", "addr:postcode": "632001", "addr:state": "Tamil Nadu", "amenity": "hospital", "healthcare": "hospital", "name": "Dr. Agarwal`S Eye Hospital Ltd", "source": "OpenGovernmentData"}}, {"type": "node", "id": 7174210785, "lat": 12.9450447, "lon": 78.8695276, "tags": {"amenity": "hospital", "healthcare": "hospital", "name:en": "Dr.S,R.Ashokan"}}, {"type": "node", "id": 7181669848, "lat": 12.9153529, "lon": 79.1335011, "tags": {"addr:block": "Vellore Corp", "addr:district": "Vellore", "addr:full": "#32, G.P.H. Road,Kosapet", "addr:postcode": "632001", "addr:state": "Tamil Nadu", "amenity": "hospital", "healthcare": "hospital", "name": "Sankari Hospital", "source": "OpenGovernmentData"}}, {"type": "node", "id": 7200398285, "lat": 12.9137954, "lon": 79.1349428, "tags": {"addr:street": "Thennamara Theru", "amenity": "hospital", "healthcare": "hospital", "name:en": "Dr Thirumal Babu", "phone": "9003070065"}}, {"type": "node", "id": 7252333326, "lat": 13.062703, "lon": 78.9720516, "tags": {"addr:block": "Gudiyatham Mpty", "addr:district": "Vellore", "addr:full": "Paratharami PHC, Gangai Amman Kovil Near, Paradharami, Gudiyatham To Katpadi Road", "addr:postcode": "632603", "addr:state": "Tamil Nadu", "addr:subdistrict": "Gudiyatham", "amenity": "hospital", "name": "Paratharami Government Hospital", "source": "OpenGovernmentData"}}, {"type": "node", "id": 7257289024, "lat": 12.9153169, "lon": 79.0567052, "tags": {"addr:block": "Anaicut", "addr:district": "Vellore", "addr:full": "Channai To Bangalore High Way, Poigai, Poigai", "addr:postcode": "635114", "addr:state": "Tamil Nadu", "amenity": "hospital", "name": "Poigai Government Hospital", "source": "OpenGovernmentData"}}, {"type": "node", "id": 7257289036, "lat": 12.9059984, "lon": 79.1355217, "tags": {"addr:block": "Vellore Corp", "addr:district": "Vellore", "addr:full": "Vellore, Arani Road, Velapadi", "addr:postcode": "632001", "addr:state": "Tamil Nadu", "amenity": "hospital", "healthcare": "hospital", "name": "Varshini Hospital, Vellore", "source": "OpenGovernmentData"}}, {"type": "node", "id": 7257289043, "lat": 12.9030309, "lon": 79.1334705, "tags": {"addr:block": "Vellore Corp", "addr:district": "Vellore", "addr:full": "Vellore, Thiyagarajapuram", "addr:postcode": "632001", "addr:state": "Tamil Nadu", "amenity": "hospital", "healthcare": "hospital", "name": "Arun Hospital", "source": "OpenGovernmentData"}}, {"type": "node", "id": 7257289044, "lat": 12.9314139, "lon": 78.9425135, "tags": {"addr:block": "K.V.Kuppam", "addr:district": "Vellore", "addr:full": "Pasumathur PHC, Near Government .Hr.School, Pasumathur, Netteri Road", "addr:postcode": "635803", "addr:state": "Tamil Nadu", "addr:subdistrict": "Katpadi", "amenity": "hospital", "name": "Pasumathur Government Hospital", "source": "OpenGovernmentData"}}, {"type": "node", "id": 7257289049, "lat": 12.9156633, "lon": 79.1346498, "tags": {"addr:block": "Vellore Corp", "addr:district": "Vellore", "addr:full": "Government Pentland Hospital, Near Sri Krishna Residancy, Vellroe, Government Pentland Hospital Road", "addr:postcode": "632001", "addr:state": "Tamil Nadu", "amenity": "hospital", "healthcare": "hospital", "name": "Government Pentland Hospital", "source": "OpenGovernmentData"}}, {"type": "node", "id": 7257289055, "lat": 12.91051, "lon": 79.131432, "tags": {"addr:block": "Vellore Corp", "addr:district": "Vellore", "addr:full": "Vellore, Masilamani Hostel Road, Officers Line", "addr:postcode": "632001", "addr:state": "Tamil Nadu", "amenity": "hospital", "healthcare": "hospital", "name": "Mummy Hospital, Vellore", "source": "OpenGovernmentData"}}, {"type": "node", "id": 7257289063, "lat": 12.8441327, "lon": 79.1366903, "tags": {"addr:block": "Vellore Corp", "addr:district": "Vellore", "addr:full": "Gvmch, Near By Venkateswara Polytechnic, Adukkamparai, Arani Road, Opposite Staff Quarters", "addr:postcode": "632011", "addr:state": "Tamil Nadu", "amenity": "hospital", "healthcare": "hospital", "name": "Vellore Medical College And Hospital", "source": "OpenGovernmentData"}}, {"type": "node", "id": 7257289077, "lat": 12.872987, "lon": 79.133123, "tags": {"addr:block": "Vellore Corp", "addr:district": "Vellore", "addr:full": "Polur - Vellore Rd, Ramalinga Nagar, Edyansathu, Vellore", "addr:postcode": "632002", "addr:state": "Tamil Nadu", "amenity": "hospital", "name": "Dinesh Hospital, Vellore", "source": "OpenGovernmentData"}}, {"type": "node", "id": 7257289125, "lat": 12.8704789, "lon": 79.0900539, "tags": {"addr:block": "Vellore Corp", "addr:district": "Vellore", "addr:full": "Sri Narayani Hospital & Research Centre, Ariyur, Vellroe, Thirumalaikodi", "addr:postcode": "632055", "addr:state": "Tamil Nadu", "amenity": "hospital", "healthcare": "hospital", "name": "Sri Narayani Hospital & Research Centre, Ariyur", "source": "OpenGovernmentData"}}, {"type": "node", "id": 7257289127, "lat": 12.908625, "lon": 79.1255813, "tags": {"addr:block": "Vellore Corp", "addr:district": "Vellore", "addr:full": "Vellore, Thennamaram st", "addr:postcode": "632001", "addr:state": "Tamil Nadu", "amenity": "hospital", "healthcare": "hospital", "name": "Dr. Santhakumari Hospital", "source": "OpenGovernmentData"}}, {"type": "node", "id": 7257421526, "lat": 12.9453972, "lon": 78.8685493, "tags": {"addr:block": "Gudiyatham Mpty", "addr:district": "Vellore", "addr:full": "18, Kosa Annamalai St, Chunambupet, Ambapuram, Gudiyattam", "addr:postcode": "632602", "addr:state": "Tamil Nadu", "addr:subdistrict": "Gudiyatham", "amenity": "hospital", "healthcare": "hospital", "name": "Gopalakrishna Hospital, Gudiyatham", "source": "OpenGovernmentData"}}, {"type": "node", "id": 7257421534, "lat": 12.9893488, "lon": 78.9656826, "tags": {"addr:block": "K.V.Kuppam", "addr:district": "Vellore", "addr:full": "Govt Hospital, Kanguppam", "addr:postcode": "632209", "addr:state": "Tamil Nadu", "addr:subdistrict": "Katpadi", "amenity": "hospital", "name": "Government Hospital Kangkuppam", "source": "OpenGovernmentData"}}, {"type": "node", "id": 7257421535, "lat": 12.96365, "lon": 79.015876, "tags": {"addr:block": "K.V.Kuppam", "addr:district": "Vellore", "addr:full": "Vaduganthangal CHC, Near Panchyat Ofice, Vaduganthangal, Gudiyatham ,Katpadi Road", "addr:postcode": "632204", "addr:state": "Tamil Nadu", "addr:subdistrict": "Katpadi", "amenity": "hospital", "name": "Government Hospital, Vaduganthangal", "source": "OpenGovernmentData"}}, {"type": "node", "id": 7257421542, "lat": 12.93425, "lon": 79.158739, "tags": {"addr:block": "Vellore Corp", "addr:district": "Vellore", "addr:full": "Behind Sub Court, Phase 2, Sathuvachari, Vellore", "addr:postcode": "632009", "addr:state": "Tamil Nadu", "amenity": "hospital", "healthcare": "hospital", "name": "Baba Hospital, Sathuvachari", "source": "OpenGovernmentData"}}, {"type": "node", "id": 7257421567, "lat": 12.95111, "lon": 78.971831, "tags": {"addr:district": "Vellore", "addr:full": "Ruhsa Campus, Kavanur, Ruhsa Campus, Kavanur", "addr:postcode": "632209", "addr:state": "Tamil Nadu", "addr:subdistrict": "Gudiyatham", "amenity": "hospital", "name": "Ruhsa, Kavanur", "source": "OpenGovernmentData"}}, {"type": "node", "id": 7257421568, "lat": 12.93239, "lon": 79.156815, "tags": {"addr:block": "Vellore Corp", "addr:district": "Vellore", "addr:full": "Vellore, Phase-2 , Sathuvachari", "addr:postcode": "632009", "addr:state": "Tamil Nadu", "amenity": "hospital", "healthcare": "hospital", "name": "Sarada Multispeciality Hospital", "source": "OpenGovernmentData"}}, {"type": "node", "id": 7257421579, "lat": 12.9622, "lon": 78.987091, "tags": {"addr:block": "K.V.Kuppam", "addr:district": "Vellore", "addr:full": "K.V.Kuppam Phc, Nil, K.V.Kuppam, Melmoil Road", "addr:postcode": "632201", "addr:state": "Tamil Nadu", "addr:subdistrict": "Katpadi", "amenity": "hospital", "name": "Government Hospital K.V.Kuppam", "source": "OpenGovernmentData"}}, {"type": "node", "id": 7257421598, "lat": 12.936069, "lon": 79.1643137, "tags": {"addr:block": "Vellore Corp", "addr:district": "Vellore", "addr:full": "14 / 87, Vellore, 7Th Cross, Phase - 1, Housing Board Office Road, Sathuvachari", "addr:postcode": "632009", "addr:state": "Tamil Nadu", "amenity": "hospital", "healthcare": "hospital", "name": "Sakthi Amma Hospital, Vellore", "source": "OpenGovernmentData"}}, {"type": "node", "id": 7257421605, "lat": 12.9323821, "lon": 78.7166738, "tags": {"addr:block": "Pernampattu", "addr:district": "Vellore", "addr:full": "Near Bus Stand, Pernampattu, Ambur Main Road", "addr:postcode": "635810", "addr:state": "Tamil Nadu", "addr:subdistrict": "Ambur", "amenity": "hospital", "name": "Pernampattu Government Hospital", "source": "OpenGovernmentData"}}, {"type": "node", "id": 7257421609, "lat": 13.0147452, "lon": 79.2173929, "tags": {"addr:district": "Vellore", "addr:full": "Serkadu PHC, Near Panchayay Office, Serkadu, Perumal Koil Street", "addr:postcode": "632106", "addr:state": "Tamil Nadu", "addr:subdistrict": "Katpadi", "amenity": "hospital", "name": "Serkadu Government Hospital", "source": "OpenGovernmentData"}}, {"type": "node", "id": 7257421612, "lat": 12.9433459, "lon": 78.8696553, "tags": {"addr:block": "Gudiyatham Mpty", "addr:district": "Vellore", "addr:full": "Gudiyatham, Punganur Amman Koil Street", "addr:postcode": "632602", "addr:state": "Tamil Nadu", "addr:subdistrict": "Gudiyatham", "amenity": "hospital", "healthcare": "hospital", "name": "Swamy Hospital", "source": "OpenGovernmentData"}}, {"type": "node", "id": 7825122238, "lat": 12.9597861, "lon": 79.1386445, "tags": {"addr:district": "Vellore", "addr:postcode": "632006", "addr:state": "Tamil Nadu", "amenity": "hospital", "healthcare": "hospital", "name": "Herbocare Hospital", "source": "Local Knowledge"}}, {"type": "node", "id": 7825122240, "lat": 12.8936736, "lon": 79.1357186, "tags": {"addr:district": "Vellore", "addr:full": "Sainathapuram, RV Nagar", "addr:postcode": "632001", "addr:state": "Tamil Nadu", "amenity": "hospital", "healthcare": "hospital", "name": "Ramachandra Hospital", "source": "Local Knowledge"}}, {"type": "node", "id": 7825122245, "lat": 12.9566197, "lon": 79.1418751, "tags": {"addr:district": "Vellore", "addr:full": "Gandhi Nagar", "addr:postcode": "632006", "addr:state": "Tamil Nadu", "amenity": "hospital", "healthcare": "hospital", "name": "Swasam Naturecure and Yoga Hospital", "source": "Local Knowledge"}}, {"type": "node", "id": 7825122246, "lat": 12.905718, "lon": 79.1352986, "tags": {"addr:district": "Vellore", "addr:full": "Velapadi, Vellore", "addr:postcode": "632001", "addr:state": "Tamil Nadu", "amenity": "hospital", "healthcare": "hospital", "name": "S.K. Nambi Hospital", "source": "Local Knowledge"}}, {"type": "node", "id": 7825122249, "lat": 12.9016809, "lon": 79.1316299, "tags": {"addr:district": "Vellore", "addr:postcode": "632001", "addr:state": "Tamil Nadu", "amenity": "hospital", "healthcare": "hospital", "name": "Vellore Hospital", "source": "Local Knowledge"}}, {"type": "node", "id": 7825122250, "lat": 12.9082477, "lon": 79.1251947, "tags": {"addr:district": "Vellore", "addr:full": "R N Palayam, Vellore", "addr:postcode": "632001", "addr:state": "Tamil Nadu", "amenity": "hospital", "healthcare": "hospital", "name": "Church Hospital", "source": "Local Knowledge"}}, {"type": "node", "id": 7825122251, "lat": 12.9522294, "lon": 79.144835, "tags": {"addr:district": "Vellore", "addr:postcode": "632006", "addr:state": "Tamil Nadu", "amenity": "hospital", "healthcare": "hospital", "name": "Shivam Hospital", "source": "Local Knowledge"}}, {"type": "node", "id": 7825122255, "lat": 12.9154281, "lon": 79.1352036, "tags": {"addr:district": "Vellore", "addr:full": "Srinivasan Nagar", "addr:postcode": "632001", "addr:state": "Tamil Nadu", "amenity": "hospital", "healthcare": "hospital", "name": "G P Hospital", "source": "Local Knowledge"}}, {"type": "node", "id": 7825122256, "lat": 12.9565077, "lon": 79.1414803, "tags": {"addr:district": "Vellore", "addr:postcode": "632006", "addr:state": "Tamil Nadu", "amenity": "hospital", "healthcare": "hospital", "name": "Kurinji Hospital", "source": "Local Knowledge"}}, {"type": "node", "id": 7825122257, "lat": 12.8773311, "lon": 79.1066157, "tags": {"addr:district": "Vellore", "addr:full": "Mahalakshmi Nagar, Thorapadi", "addr:postcode": "632055", "addr:state": "Tamil Nadu", "amenity": "hospital", "healthcare": "hospital", "name": "Best Hospital", "source": "Local Knowledge"}}, {"type": "node", "id": 7825122262, "lat": 12.9163413, "lon": 79.1342217, "tags": {"addr:district": "Vellore", "addr:full": "Saidapet", "addr:postcode": "632004", "addr:state": "Tamil Nadu", "amenity": "hospital", "healthcare": "hospital", "name": "Dr. Venkateswara Rao Hospital", "source": "Local Knowledge"}}, {"type": "node", "id": 7825122263, "lat": 12.9577933, "lon": 79.136876, "tags": {"addr:district": "Vellore", "addr:full": "Venkatraman Nagar, Katpadi", "addr:postcode": "632006", "addr:state": "Tamil Nadu", "amenity": "hospital", "healthcare": "hospital", "name": "Akshaya General and Dental Hospital", "source": "Local Knowledge"}}, {"type": "node", "id": 7825122265, "lat": 12.904517, "lon": 79.135956, "tags": {"addr:district": "Vellore", "addr:full": "Velapadi", "addr:postcode": "632001", "addr:state": "Tamil Nadu", "amenity": "hospital", "healthcare": "hospital", "name": "K K R Hospital", "source": "Local Knowledge"}}, {"type": "node", "id": 7825122267, "lat": 12.9218545, "lon": 79.1125805, "tags": {"addr:district": "Vellore", "addr:full": "Konavattam", "addr:postcode": "632013", "addr:state": "Tamil Nadu", "amenity": "hospital", "healthcare": "hospital", "name": "C.M Dental Clinic and Hospital", "source": "Local Knowledge"}}, {"type": "node", "id": 7825122268, "lat": 12.9578429, "lon": 79.1432088, "tags": {"addr:district": "Vellore", "addr:full": "Suthanthira Ponvizha Nagar, Gandhi Nagar", "addr:postcode": "632006", "addr:state": "Tamil Nadu", "amenity": "hospital", "healthcare": "hospital", "name": "Sterling Diabetes Hospital", "source": "Local Knowledge"}}, {"type": "node", "id": 7825122270, "lat": 12.8898385, "lon": 79.1344238, "tags": {"addr:district": "Vellore", "addr:full": "Virupatchipuram, RV Nagar", "addr:postcode": "632002", "addr:state": "Tamil Nadu", "amenity": "hospital", "healthcare": "hospital", "name": "Storke Hospital", "source": "Local Knowledge"}}, {"type": "node", "id": 7825122271, "lat": 12.909147, "lon": 79.1333437, "tags": {"addr:district": "Vellore", "addr:full": "Kosapet", "addr:postcode": "632001", "addr:state": "Tamil Nadu", "amenity": "hospital", "healthcare": "hospital", "name": "Cure Multispeciality Hospital", "source": "Local Knowledge"}}, {"type": "node", "id": 7825122277, "lat": 12.9030108, "lon": 79.1324839, "tags": {"addr:district": "Vellore", "addr:full": "Sankaranpalayam", "addr:postcode": "632001", "addr:state": "Tamil Nadu", "amenity": "hospital", "healthcare": "hospital", "name": "Dr. Pari's Hospital", "source": "Local Knowledge"}}, {"type": "node", "id": 7825122282, "lat": 12.9170061, "lon": 79.138924, "tags": {"addr:district": "Vellore", "addr:full": "Sarbanamedu", "addr:postcode": "632012", "addr:state": "Tamil Nadu", "amenity": "hospital", "healthcare": "hospital", "name": "Fathima Hospital", "source": "Local Knowledge"}}, {"type": "node", "id": 7825122286, "lat": 12.9086238, "lon": 79.133113, "tags": {"addr:district": "Vellore", "addr:full": "Kosapet", "addr:postcode": "632001", "addr:state": "Tamil Nadu", "amenity": "hospital", "healthcare": "hospital", "name": "Dhinesh Hospitals", "source": "Local Knowledge"}}, {"type": "node", "id": 7825122287, "lat": 12.935049, "lon": 79.156067, "tags": {"addr:district": "Vellore", "addr:full": "Sathuvachari", "addr:postcode": "632009", "addr:state": "Tamil Nadu", "amenity": "hospital", "healthcare": "hospital", "name": "VB Hospital", "source": "Local Knowledge"}}, {"type": "node", "id": 7825122288, "lat": 12.9148799, "lon": 79.134335, "tags": {"addr:district": "Vellore", "addr:postcode": "632004", "addr:state": "Tamil Nadu", "amenity": "hospital", "healthcare": "hospital", "name": "Nirmal Eye Hospital", "source": "Local Knowledge"}}, {"type": "node", "id": 7825122290, "lat": 12.9159232, "lon": 79.1400221, "tags": {"addr:district": "Vellore", "addr:full": "Kosapet", "addr:postcode": "632001", "addr:state": "Tamil Nadu", "amenity": "hospital", "healthcare": "hospital", "name": "Gita Mathai Hospital", "source": "Local Knowledge"}}, {"type": "node", "id": 7825122292, "lat": 12.9362461, "lon": 79.1671117, "tags": {"addr:district": "Vellore", "addr:full": "Sathuvachari", "addr:postcode": "632009", "addr:state": "Tamil Nadu", "amenity": "hospital", "healthcare": "hospital", "name": "Jayanthi Hospital", "source": "Local Knowledge"}}, {"type": "node", "id": 7825122294, "lat": 12.9126302, "lon": 79.1334901, "tags": {"addr:district": "Vellore", "addr:full": "Arni Road,Kosapet, Vellore,Tamil Nadu", "addr:postcode": "632001", "addr:state": "Tamil Nadu", "amenity": "hospital", "healthcare": "hospital", "healthcare:speciality": "ophthalmology;optometry", "name": "Christian Medical College Schell Eye Hospital", "operator": "Christian Medical College", "operator:wikidata": "Q3532259", "source": "OpenGovernmentData"}}, {"type": "node", "id": 7825122295, "lat": 12.9366943, "lon": 79.1626536, "tags": {"addr:district": "Vellore", "addr:full": "Sathuvachari", "addr:postcode": "632009", "addr:state": "Tamil Nadu", "amenity": "hospital", "healthcare": "hospital", "name": "DSF Hospital", "source": "Local Knowledge"}}, {"type": "node", "id": 7825122298, "lat": 12.9218139, "lon": 79.1127269, "tags": {"addr:district": "Vellore", "addr:full": "Konnavattam", "addr:postcode": "632014", "addr:state": "Tamil Nadu", "amenity": "hospital", "healthcare": "hospital", "name": "Jansi Hospital", "source": "Local Knowledge"}}, {"type": "node", "id": 7825122304, "lat": 12.9106339, "lon": 79.1332837, "tags": {"addr:district": "Vellore", "addr:full": "Arni Road, Kosapet", "addr:postcode": "632001", "addr:state": "Tamil Nadu", "amenity": "hospital", "healthcare": "hospital", "name": "Satish Eye Hospital", "source": "Local Knowledge"}}, {"type": "node", "id": 7825122305, "lat": 12.9002559, "lon": 79.1271585, "tags": {"addr:district": "Vellore", "addr:postcode": "632001", "addr:state": "Tamil Nadu", "amenity": "hospital", "healthcare": "hospital", "name": "Lakshmi Hospital", "source": "Local Knowledge"}}, {"type": "node", "id": 7825122306, "lat": 12.9112511, "lon": 79.1317331, "tags": {"addr:district": "Vellore", "addr:full": "Vasanthapuram, Kosapet", "addr:postcode": "632001", "addr:state": "Tamil Nadu", "amenity": "hospital", "healthcare": "hospital", "name": "Aruna Eye Hospital", "source": "Local Knowledge"}}, {"type": "node", "id": 7825122311, "lat": 12.8923296, "lon": 79.1354165, "tags": {"addr:district": "Vellore", "addr:full": "Sainathapuram, RV Nagar", "addr:postcode": "632002", "addr:state": "Tamil Nadu", "amenity": "hospital", "healthcare": "hospital", "name": "JJ Ravi Hospital", "source": "Local Knowledge"}}, {"type": "node", "id": 7825122312, "lat": 12.8716238, "lon": 79.085893, "tags": {"addr:district": "Vellore", "addr:full": "Thirumalaikodi", "addr:postcode": "632055", "addr:state": "Tamil Nadu", "amenity": "hospital", "healthcare": "hospital", "name": "Balaji Hospital", "source": "Local Knowledge"}}, {"type": "node", "id": 7825122313, "lat": 12.9031171, "lon": 79.1359967, "tags": {"addr:district": "Vellore", "addr:full": "Velapadi", "addr:postcode": "632001", "addr:state": "Tamil Nadu", "amenity": "hospital", "healthcare": "hospital", "name": "Jothi Hospital", "source": "Local Knowledge"}}, {"type": "node", "id": 7825122317, "lat": 12.9341391, "lon": 79.1413316, "tags": {"addr:district": "Vellore", "addr:postcode": "632004", "addr:state": "Tamil Nadu", "amenity": "hospital", "healthcare": "hospital", "name": "Naruvi Hospitals", "source": "Local Knowledge"}}, {"type": "node", "id": 7825122319, "lat": 12.876936, "lon": 79.118794, "tags": {"addr:district": "Vellore", "addr:full": "Bagayam, Palavansathu", "addr:postcode": "632002", "addr:state": "Tamil Nadu", "amenity": "hospital", "healthcare": "hospital", "name": "Premji Neuro Hospital", "source": "Local Knowledge"}}, {"type": "node", "id": 7825122322, "lat": 12.9060705, "lon": 79.137064, "tags": {"addr:district": "Vellore", "addr:postcode": "632001", "addr:state": "Tamil Nadu", "amenity": "hospital", "healthcare": "hospital", "name": "Annamalai Hospital", "source": "Local Knowledge"}}, {"type": "node", "id": 7825122323, "lat": 12.916289, "lon": 79.1363165, "tags": {"addr:district": "Vellore", "addr:postcode": "632006", "addr:state": "Tamil Nadu", "amenity": "hospital", "healthcare": "hospital", "name": "BPR Hospital", "source": "Local Knowledge"}}, {"type": "node", "id": 10735185863, "lat": 12.9546956, "lon": 79.1352002, "tags": {"addr:city": "vellore", "addr:housenumber": "9", "addr:postcode": "632006", "addr:street": "Venkatraman Nagar 1st st.,", "amenity": "hospital", "healthcare": "hospital", "healthcare:speciality": "dentist;endodontist;orthopaedics;implantology;microscopic_dentistry", "name": "Nathan dental clinic", "operator": "Dr.V.N.Narendran", "operator:type": "private"}}, {"type": "node", "id": 10873401174, "lat": 12.9916571, "lon": 79.2547194}, {"type": "node", "id": 10873401175, "lat": 12.9911109, "lon": 79.2546026}, {"type": "node", "id": 10873401176, "lat": 12.9911626, "lon": 79.2542522}, {"type": "node", "id": 10873401177, "lat": 12.9917023, "lon": 79.2543867}, {"type": "node", "id": 10873401178, "lat": 12.9917368, "lon": 79.2546008}, {"type": "node", "id": 10873401179, "lat": 12.9919972, "lon": 79.2546787}, {"type": "node", "id": 10873401180, "lat": 12.9922168, "lon": 79.2547707}, {"type": "node", "id": 10873401181, "lat": 12.9920197, "lon": 79.255223}, {"type": "node", "id": 10873401182, "lat": 12.9916206, "lon": 79.2549872}, {"type": "node", "id": 12369363915, "lat": 12.9245349, "lon": 79.1334688}, {"type": "node", "id": 12369363916, "lat": 12.9245331, "lon": 79.1336553}, {"type": "node", "id": 12369363917, "lat": 12.9243734, "lon": 79.1334713}, {"type": "node", "id": 12369363918, "lat": 12.9243765, "lon": 79.1336145}, {"type": "way", "id": 120272987, "nodes": [1348980048, 12369363916, 12369363915, 12369363917, 12369363918, 1348980043, 1348980045, 1348980046, 1348980047, 1348980049, 1348980048], "tags": {"addr:city": "Vellore", "addr:postcode": "632004", "addr:street": "Ida Scudder Road", "alt_name": "CMC Vellore;CMCH;CMC, Vellore", "amenity": "hospital", "email": "pro@cmcvellore.ac.in", "healthcare": "hospital", "healthcare:speciality": "intensive;physiatry;radiology;occupational;radiotherapy;nuclear;dental_oral_maxillo_facial_surgery;paediatrics;otolaryngology;endocrinology;infectious_diseases;neonatology;gynaecology;orthopaedics;paediatric_surgery;palliative;rheumatology", "name": "Christian Medical College Hospital", "name:ml": "\u0d15\u0d4d\u0d30\u0d3f\u0d38\u0d4d\u0d24\u0d4d\u0d2f\u0d7b \u0d2e\u0d46\u0d21\u0d3f\u0d15\u0d4d\u0d15\u0d7d \u0d15\u0d4b\u0d33\u0d47\u0d1c\u0d4d & \u0d39\u0d4b\u0d38\u0d4d\u0d2a\u0d3f\u0d31\u0d4d\u0d31\u0d7d, \u0d35\u0d46\u0d32\u0d4d\u0d32\u0d42\u0d7c", "name:ta": "\u0b95\u0bbf\u0bb0\u0bc1\u0ba4\u0bcd\u0ba4\u0bb5 \u0bae\u0bb0\u0bc1\u0ba4\u0bcd\u0ba4\u0bc1\u0bb5\u0b95\u0bcd \u0b95\u0bb2\u0bcd\u0bb2\u0bc2\u0bb0\u0bbf", "phone": "0416-2281000;+91 9498760000", "website": "https://www.cmch-vellore.edu/", "wikidata": "Q3532259", "wikimedia_commons": "Category:Christian Medical College, Vellore", "wikipedia": "en:Christian Medical College Vellore"}}, {"type": "way", "id": 370765052, "nodes": [3744530425, 3744530426, 5487048836, 5487048413, 5487048414, 3744530428, 3744530425], "tags": {"amenity": "hospital", "healthcare": "hospital", "name": "Health Centre", "operator": "Sri Narayani Hospital and Research Centre (SNHRC)", "operator:type": "private"}}, {"type": "way", "id": 485799111, "nodes": [4785647579, 4785647580, 4785647581, 4785647582, 4785647583, 4785647584, 4785647585, 4785647586, 4785647587, 4785647588, 4785647589, 4785647590, 5125037546, 4785647592, 4785647593, 4785647594, 4785647595, 4785647596, 4785647579], "tags": {"addr:block": "Gudiyatham Mpty", "addr:district": "Vellore", "addr:full": "Ambapuram, Gudiyattam", "addr:postcode": "632602", "addr:state": "Tamil Nadu", "addr:subdistrict": "Gudiyatham", "amenity": "hospital", "building": "hospital", "healthcare": "hospital", "name": "Government Hospital, Gudiyatham", "source": "OpenGovernmentData"}}, {"type": "way", "id": 1169319670, "nodes": [10873401174, 10873401175, 10873401176, 10873401177, 10873401178, 10873401179, 10873401180, 10873401181, 10873401182, 10873401174], "tags": {"addr:district": "Vellore", "addr:full": "Thiruvalam CHC, Opp. Government Boys Hr. Sec School, Thiruvalam, Sivanandha Nagar", "addr:postcode": "632515", "addr:state": "Tamil Nadu", "addr:subdistrict": "Katpadi", "amenity": "hospital", "area": "yes", "emergency": "yes", "healthcare": "hospital", "name": "Government Primary Healthcare Centre", "operator:type": "government", "source": "OpenGovernmentData"}}]}